,Название,Сеть,Адрес,Город,Оборудование в магазине,Статус поддержки,tClients,name_combined,adr_tocheck,geometry.location.lat,geometry.location.lng,formatted_address,locality,administrative_area_level_2,administrative_area_level_1,route,street_number
0,ПМ1,Патрик&Мари,"ул.Атарбекова, 5",Краснодар,ПМ1_ESL-SES,Архивный,,ПМ1,"Краснодар ул.Атарбекова, 5",45.05979989999999,38.9467187,"ул. Атарбекова, 5, Краснодар, Краснодарский край, Россия, 350062",Краснодар,город Краснодар,Краснодарский край,улица Атарбекова,5
1,ПМ2,Патрик&Мари,"ул.Зиповская, 5\4",Краснодар,ПМ2_ESL-SES,Архивный,,ПМ2,"Краснодар ул.Зиповская, 5\4",45.0615286,38.9987302,"ул. Зиповская, 5/4, Краснодар, Краснодарский край, Россия, 350032",Краснодар,город Краснодар,Краснодарский край,улица Зиповская,5/4
2,ПМ3,Патрик&Мари,"ул.Кубано-Набережная, 35а",Краснодар,ПМ3_ESL-SES,Архивный,,ПМ3,"Краснодар ул.Кубано-Набережная, 35а",44.9960569,39.1070075,"ул. Кубанонабережная, 35, Краснодар, Краснодарский край, Россия, 350910",Краснодар,город Краснодар,Краснодарский край,улица Кубанонабережная,35
3,ПМ4,Патрик&Мари,"ул.Проспект Чекистов, 17",Краснодар,ПМ4_ESL-SES,Архивный,,ПМ4,"Краснодар ул.Проспект Чекистов, 17",45.0314735,38.9126584,"пр. Чекистов, 17, Краснодар, Краснодарский край, Россия, 350089",Краснодар,город Краснодар,Краснодарский край,проспект Чекистов,17
4,ПМ5,Патрик&Мари,"ул.Красная, 155",Краснодар,ПМ5_ESL-SES,Архивный,,ПМ5,"Краснодар ул.Красная, 155",45.0495427,38.9787036,"ул. Красная, 155, Краснодар, Краснодарский край, Россия, 350020",Краснодар,город Краснодар,Краснодарский край,улица Красная,155
5,ПМ6,Патрик&Мари,"ул.1 Мая, 168",Краснодар,ПМ6_ESL-SES,Архивный,,ПМ6,"Краснодар ул.1 Мая, 168",45.0563756,39.022966,"ул. 1 Мая, 168, Краснодар, Краснодарский край, Россия, 350901",Краснодар,город Краснодар,Краснодарский край,улица 1 Мая,168
6,ПМ7,Патрик&Мари,"ул.Красная, 158",Краснодар,ПМ7_ESL-SES,Архивный,,ПМ7,"Краснодар ул.Красная, 158",45.0396009,38.9763795,"ул. Красная, 158, Краснодар, Краснодарский край, Россия, 350015",Краснодар,город Краснодар,Краснодарский край,улица Красная,158
7,ПМ8,Патрик&Мари,"ул.Красноармейская, 50",Краснодар,ПМ8_ESL-SES,Архивный,,ПМ8,"Краснодар ул.Красноармейская, 50",45.0235607,38.97251410000001,"Красноармейская ул., 50, Краснодар, Краснодарский край, Россия, 350000",Краснодар,город Краснодар,Краснодарский край,Красноармейская улица,50
8,ПМ9,Патрик&Мари,"ул.Шоссе Нефтяников, 63",Краснодар,ПМ9_ESL-ZKong,Архивный,,ПМ9,"Краснодар ул.Шоссе Нефтяников, 63",45.0693087,38.9815768,"ул. ш. Нефтяников, 63, Краснодар, Краснодарский край, Россия, 350051",Краснодар,город Краснодар,Краснодарский край,улица шоссе Нефтяников,63
9,ПМ10,Патрик&Мари,"ул.Яна Полуяна, 43",Краснодар,ПМ10_ESL-SES,Архивный,,ПМ10,"Краснодар ул.Яна Полуяна, 43",45.06381210000001,38.9596211,"ул. Яна Полуяна, 43, Краснодар, Краснодарский край, Россия, 350062",Краснодар,город Краснодар,Краснодарский край,улица Яна Полуяна,43
10,ПМ11,Патрик&Мари,"ул.Ставропольская, 140",Краснодар,ПМ11_ESL-ZKong,Архивный,,ПМ11,"Краснодар ул.Ставропольская, 140",45.0198295,39.0037274,"ул. Ставропольская, 140, Краснодар, Краснодарский край, Россия, 350001",Краснодар,город Краснодар,Краснодарский край,улица Ставропольская,140
11,ПМ12,Патрик&Мари,ул.40 лет Победы 117,Краснодар,ПМ12_ESL-SES,Архивный,,ПМ12,Краснодар ул.40 лет Победы 117,45.0562478,39.03052350000001,"ул. 40-летия Победы, 117, Краснодар, Краснодарский край, Россия, 350901",Краснодар,город Краснодар,Краснодарский край,улица 40-летия Победы,117
12,ПМ13,Патрик&Мари,ул.3й Звенигородский проезд 81,Краснодар,ПМ13_ESL-SES,Архивный,,ПМ13,Краснодар ул.3й Звенигородский проезд 81,45.12444360000001,38.97039669999999,"3-й Звенигородский пр., 81, Краснодар, Краснодарский край, Россия, 350900",Краснодар,город Краснодар,Краснодарский край,3-й Звенигородский проезд,81
13,ПМ14,Патрик&Мари,ул.Петра Метальникова 3/1 к1,Краснодар,ПМ14_ESL-SES,Архивный,,ПМ14,Краснодар ул.Петра Метальникова 3/1 к1,45.0937904,39.004218,"ул. Петра Метальникова, 3/1 корпус 1, Краснодар, Краснодарский край, Россия, 350087",Краснодар,город Краснодар,Краснодарский край,улица Петра Метальникова,3/1 корпус 1
14,ПМ15,Патрик&Мари,ул.Сормовская 108/2,Краснодар,ПМ15_ESL-SES,Архивный,,ПМ15,Краснодар ул.Сормовская 108/2,45.0224757,39.0547089,"ул. Сормовская, 108/2, Краснодар, Краснодарский край, Россия, 350018",Краснодар,город Краснодар,Краснодарский край,улица Сормовская,108/2
15,ПМ16,Патрик&Мари,ул.Красных Партизан 1/4 к2,Краснодар,ПМ16_ESL-SES,Архивный,,ПМ16,Краснодар ул.Красных Партизан 1/4 к2,45.0810046,38.8979331,"ул. Красных Партизан, 1/4 корпус 2, Краснодар, Краснодарский край, Россия, 350012",Краснодар,город Краснодар,Краснодарский край,улица Красных Партизан,1/4 корпус 2
16,ПМ17,Патрик&Мари,ул.Кубанская 54,Краснодар,ПМ17_ESL-SES,Архивный,,ПМ17,Краснодар ул.Кубанская 54,45.0209339,39.0858708,"ул. Кубанская, 54, Краснодар, Краснодарский край, Россия, 350911",Краснодар,город Краснодар,Краснодарский край,улица Кубанская,54
17,ПМ 18,Патрик&Мари,"ул.Восточно-Кругликовская, 18",Краснодар,ПМ 18_ESL-SES,Архивный,,ПМ 18,"Краснодар ул.Восточно-Кругликовская, 18",45.0464615,39.0275056,"ул. Восточно-Кругликовская, 18, Краснодар, Краснодарский край, Россия, 350901",Краснодар,город Краснодар,Краснодарский край,улица Восточно-Кругликовская,18
18,ПМ 19,Патрик&Мари,Ст Динская ул. Красная 64,Краснодар,ПМ 19_ESL-ZKong,Архивный,,ПМ 19,Краснодар Ст Динская ул. Красная 64,45.215297,39.2278666,"ул. Красная, 64, Динская, Краснодарский край, Россия, 353204",Динская,Динской район,Краснодарский край,улица Красная,64
19,ПМ20,Патрик&Мари,ул.40 лет Победы 33Г,Краснодар,ПМ20_ESL-ZKong,Архивный,,ПМ20,Краснодар ул.40 лет Победы 33Г,45.055811,39.003664,"улица имени, 33Г, Краснодар, Краснодарский край, Россия, 350000",Краснодар,город Краснодар,Краснодарский край,улица имени,33Г
20,ПМ21,Патрик&Мари,"Сочи, ул.Московская 3к5",Сочи,ПМ21_ESL-ZKong,Архивный,,ПМ21,"Сочи Сочи, ул.Московская 3к5",43.5930151,39.7245312,"ул. Московская, 3 корп 5, Сочи, Краснодарский край, Россия, 354000",Сочи,город-курорт Сочи,Краснодарский край,улица Московская,3 корп 5
21,ПМ22,Патрик&Мари,бульвар Адмиралтейский 3/1,Краснодар,ПМ22_ESL-ZKong,Архивный,,ПМ22,Краснодар бульвар Адмиралтейский 3/1,45.1029924,39.0869009,"Адмиралтейская ул., 3, Индустриальный, Краснодарский край, Россия, 350056",Индустриальный,город Краснодар,Краснодарский край,Адмиралтейская улица,3
22,Алексеева 24,Killer Price,г. Красноярск ул. Алексеева 24 оф. 41 магазин «Killprice»,Красноярск,Алексеева 24_ESL-ZKong,Архивный,,Алексеева 24,Красноярск г. Красноярск ул. Алексеева 24 оф. 41 магазин «Killprice»,56.0534566,92.9110269,"ул. Алексеева, 24, 41, Красноярск, Красноярский край, Россия, 660098",Красноярск,город Красноярск,Красноярский край,улица Алексеева,24
23,Варшавка 1,Smeg,"Варшавское ш., 1с1-2",Москва,Варшавка 1_ESL-SES,На поддержке,,Варшавка 1,"Москва Варшавское ш., 1с1-2",55.6159372,37.6114405,"Варшавское ш., 1 стр. 1, 2, Москва, Россия, 117105",Москва,Москва,Москва,Варшавское шоссе,1 стр. 1
24,Красный 22,Smeg,"Красный проспект, 22",Новосибирск,Красный 22_ESL-ZKong,На поддержке,,Красный 22,"Новосибирск Красный проспект, 22",55.0228767,82.9229879,"Красный пр-т., 22, Новосибирск, Новосибирская обл., Россия, 630007",Новосибирск,город Новосибирск,Новосибирская область,Красный проспект,22
25,Зубовская 7,Miele,"   Зубовская ул., 7",Москва,Зубовская 7_ESL-ZKong,На гарантии,,Зубовская 7,"Москва    Зубовская ул., 7",55.7370008,37.583455,"Зубовская ул., 7, Москва, Россия, 119034",Москва,Москва,Москва,Зубовская улица,7
26,6976,Пятёрочка,"г.Долгопрудный, Парковая ул., 36",МО,6976_ESL-SES,Нет активной поддержки,,6 976,"МО г.Долгопрудный, Парковая ул., 36",55.9522211,37.4952602,"Парковая ул., 36, Долгопрудный, Московская обл., Россия, 141702",Долгопрудный,Городской округ Долгопрудный,Московская область,Парковая улица,36
27,3495,Пятёрочка,г. Хотьково,МО,3495_ESL-SES,Нет активной поддержки,,3 495,МО г. Хотьково,56.2535371,37.9772291,"Хотьково, Московская обл., Россия",Хотьково,Сергиево-Посадский городской округ,Московская область,,
28,6462,Пятёрочка,г. Батайск ул. Тельмана 2б,Батайск,6462_ESL-SES,Нет активной поддержки,,6 462,Батайск г. Батайск ул. Тельмана 2б,47.133669,39.767422,"ул. Тельмана, 2Б, Батайск, Ростовская обл., Россия, 346884",Батайск,город Батайск,Ростовская область,улица Тельмана,2Б
29,L615,Пятёрочка,"г. Орел, ул. Металлургов 19",Орел,L615_ESL-SES,Нет активной поддержки,,L615,"Орел г. Орел, ул. Металлургов 19",53.0183792,36.132688,"ул. Металлургов, 19, Орёл, Орловская обл., Россия, 302038",Орёл,город Орел,Орловская область,улица Металлургов,19
30,Y726,Пятёрочка,"г. Ярославль, Чкалова 2",Ярославль,Y726_ESL-SES,Нет активной поддержки,,Y726,"Ярославль г. Ярославль, Чкалова 2",57.6379195,39.8572289,"ул. Чкалова, 2, Ярославль, Ярославская обл., Россия, 150054",Ярославль,город Ярославль,Ярославская область,улица Чкалова,2
31,5683,Пятёрочка,г. СПб Наставников 47,СПб,5683_ESL-SES,Нет активной поддержки,,5 683,СПб г. СПб Наставников 47,59.95751980000001,30.4803242,"пр. Наставников, 47, Санкт-Петербург, Россия, 195030",Санкт-Петербург,,Санкт-Петербург,проспект Наставников,47
32,4163,Пятёрочка,"г.Балашиха, Энтузиастов ш., 32",МО,4163_ESL-SES,Нет активной поддержки,,4 163,"МО г.Балашиха, Энтузиастов ш., 32",55.7929949,37.9359196,"ш. Энтузиастов, 32, Балашиха, Московская обл., Россия, 143912",Балашиха,Городской округ Балашиха,Московская область,шоссе Энтузиастов,32
33,5085,Пятёрочка,"Рязань,Касимовское шоссе 25",Рязань,5085_ESL-SES,Нет активной поддержки,,5 085,"Рязань Рязань,Касимовское шоссе 25",54.6225526,39.7862085,"ул. Касимовское ш., 25, Рязань, Рязанская обл., Россия, 390027",Рязань,город Рязань,Рязанская область,улица Касимовское шоссе,25
34,4655,Пятёрочка,"г.Москва, Щепкина ул., 58 стр.3",Москва,4655_ESL-SES,Нет активной поддержки,,4 655,"Москва г.Москва, Щепкина ул., 58 стр.3",55.7851265,37.6299419,"ул. Щепкина, 58 строение 3, Москва, Россия, 129110",Москва,Москва,Москва,улица Щепкина,58 строение 3
35,L260,Пятёрочка,"г. Н.Новгород, Фруктовая, 3",Нижний Новгород,L260_ESL-SES,Нет активной поддержки,,L260,"Нижний Новгород г. Н.Новгород, Фруктовая, 3",56.3181532,44.0538624,"ул. Фруктовая, 3, Нижний Новгород, Нижегородская обл., Россия, 603093",Нижний Новгород,город Нижний Новгород,Нижегородская область,улица Фруктовая,3
36,3818,Пятёрочка,"г.Москва, Маршала Савицкого ул., 6А",Москва,3818_ESL-SES,Нет активной поддержки,,3 818,"Москва г.Москва, Маршала Савицкого ул., 6А",55.505231,37.5792265,"ул. Маршала Савицкого, 6А, Москва, Россия, 117148",Москва,Москва,Москва,улица Маршала Савицкого,6А
37,5285,Пятёрочка,"г. Химки, Сходня, Мичурина, д. 25",МО,5285_ESL-SES,Нет активной поддержки,,5 285,"МО г. Химки, Сходня, Мичурина, д. 25",55.9424682,37.299782,"ул. Мичурина, 25, Химки, Московская обл., Россия, 141420",Химки,Городской округ Химки,Московская область,улица Мичурина,25
38,395b,Пятёрочка,"г. Краснодар Дальний пр. 11, корпус №1, пом.1-28.",Краснодар,395b_ESL-SES,Нет активной поддержки,,395b,"Краснодар г. Краснодар Дальний пр. 11, корпус №1, пом.1-28.",45.062267,38.96434500000001,"пр. Дальний, 11, корпус 1, Краснодар, Краснодарский край, Россия, 350051",Краснодар,город Краснодар,Краснодарский край,проезд Дальний,"11, корпус 1"
39,j519,Пятёрочка,"Московская обл, Орехово-Зуевский р-н, Ликино-Дулево г, 1 Мая ул,4",МО,j519_ESL-SES,Нет активной поддержки,,j519,"МО Московская обл, Орехово-Зуевский р-н, Ликино-Дулево г, 1 Мая ул,4",55.7322777,38.9535685,"ул. 1 Мая, 4, Ликино-Дулёво, Московская обл., Россия, 142671",Ликино-Дулёво,Орехово-Зуевский городской округ,Московская область,улица 1 Мая,4
40,S596,Пятёрочка,"г.Долгопрудный, Академика Лаврентьева ул, 27",МО,S596_ESL-SES,Нет активной поддержки,,S596,"МО г.Долгопрудный, Академика Лаврентьева ул, 27",55.9392147,37.5049019,"ул. Академика Лаврентьева, 27, Долгопрудный, Московская обл., Россия, 141700",Долгопрудный,Городской округ Долгопрудный,Московская область,улица Академика Лаврентьева,27
41,6974,Пятёрочка,"г.Долгопрудный, Пацаева пр-т, 12",МО,6974_ESL-SES,Нет активной поддержки,,6 974,"МО г.Долгопрудный, Пацаева пр-т, 12",55.94869019999999,37.4994264,"пр. Пацаева, 12, Долгопрудный, Московская обл., Россия, 141707",Долгопрудный,Городской округ Долгопрудный,Московская область,проспект Пацаева,12
42,7803,Пятёрочка,"г.Долгопрудный, Спортивная ул., 5, к.1,п.Апте",МО,7803_ESL-SES,Нет активной поддержки,,7 803,"МО г.Долгопрудный, Спортивная ул., 5, к.1,п.Апте",55.9436239,37.4971343,"Спортивная ул., 5 корпус 1, п, Долгопрудный, Московская обл., Россия, 141707",Долгопрудный,Городской округ Долгопрудный,Московская область,Спортивная улица,5 корпус 1
43,33CF,Пятёрочка,"г. Москва, ул. Башиловская, д. 1, к. 1",Москва,33CF_ESL-ZKong,Нет активной поддержки,,33CF,"Москва г. Москва, ул. Башиловская, д. 1, к. 1",55.792846,37.576704,"Башиловская ул., 1, корпус 1, Москва, Россия, 127220",Москва,Москва,Москва,Башиловская улица,"1, корпус 1"
44,33FN,Пятёрочка,"г. Москва, ул. Радиальная 6-я, д. 3, корп. 8",Москва,33FN_ESL-ZKong,Нет активной поддержки,,33FN,"Москва г. Москва, ул. Радиальная 6-я, д. 3, корп. 8",55.6075276,37.6583083,"3, 6, я д, Москва, Россия, 115404",Москва,Москва,Москва,3,6
45,V,Пятёрочка,"г. Москва, Ильменский, 17к1,2",Москва,V_ESL-ZKong,Нет активной поддержки,,V,"Москва г. Москва, Ильменский, 17к1,2",55.861205,37.539373,"Ильменский пр-д, 17 строение 1, 2, Москва, Россия, 127238",Москва,Москва,Москва,Ильменский проезд,17 строение 1
46,35YA,Пятёрочка,"г. Москва, Вятская, 27, 21",Москва,35YA_ESL-ZKong,Нет активной поддержки,,35YA,"Москва г. Москва, Вятская, 27, 21",55.7975822,37.5789596,"Вятская ул., 27/21, Москва, Россия, 127015",Москва,Москва,Москва,Вятская улица,27/21
47,5216,Пятёрочка,"г. Москва, Хабаровская ул., 4",Москва,5216_ESL-ZKong,Нет активной поддержки,,5 216,"Москва г. Москва, Хабаровская ул., 4",55.8144982,37.8263518,"Хабаровская ул., 4, Москва, Россия, 107589",Москва,Москва,Москва,Хабаровская улица,4
48,5351,Пятёрочка,"г. Люберцы, Попова ул., 1",МО,5351_ESL-ZKong,Нет активной поддержки,,5 351,"МО г. Люберцы, Попова ул., 1",55.6958873,37.8908402,"ул. Попова, 1, Люберцы, Московская обл., Россия, 140013",Люберцы,Городской округ Люберцы,Московская область,улица Попова,1
49,L603,Пятёрочка,"Большая Серпуховская улица, 46с34",Москва,L603_ESL-ZKong,Нет активной поддержки,,L603,"Москва Большая Серпуховская улица, 46с34",55.721975,37.6241409,"Большая Серпуховская ул., 46 ст 34, Москва, Россия, 115093",Москва,Москва,Москва,Большая Серпуховская улица,46 ст 34
50,3BSZ,Пятёрочка,"г. Москва, Очаковское шоссе д.5 к.4 (м. Аминьевское)",Москва,3BSZ_ESL-ZKong,Нет активной поддержки,,3BSZ,"Москва г. Москва, Очаковское шоссе д.5 к.4 (м. Аминьевское)",55.6959697,37.4606794,"Очаковское ш., 5А строение 27, Москва, Россия, 119530",Москва,Москва,Москва,Очаковское шоссе,5А строение 27
51,3BT0,Пятёрочка,"г. Москва, Барклая 6А корп. 1",Москва,3BT0_ESL-ZKong,Нет активной поддержки,,3BT0,"Москва г. Москва, Барклая 6А корп. 1",55.7407517,37.5039466,"ул. Барклая, 6, Москва, Россия, 121087",Москва,Москва,Москва,улица Барклая,6
52,3BV1,Пятёрочка,"г. Москва, Сосенское, А. Монаховой, 85к1",Москва,3BV1_ESL-ZKong,Нет активной поддержки,,3BV1,"Москва г. Москва, Сосенское, А. Монаховой, 85к1",55.5676172,37.4819437,"ул. Александры Монаховой, 85, Коммунарка, Москва, Россия, 142770",Коммунарка,Москва,Москва,улица Александры Монаховой,85
53,3BT1,Пятёрочка,"г. Москва, Давыдовская 10",Москва,3BT1_ESL-ZKong,Нет активной поддержки,,3BT1,"Москва г. Москва, Давыдовская 10",55.7219266,37.4728524,"Давыдковская ул., 10, Москва, Россия, 121352",Москва,Москва,Москва,Давыдковская улица,10
54,3BS7,Пятёрочка,"г. Москва, Волоколамское ш. 71к4",Москва,3BS7_ESL-ZKong,Нет активной поддержки,,3BS7,"Москва г. Москва, Волоколамское ш. 71к4",55.8366619,37.2894091,"Волоколамское ш., 71, корпус 4, Москва, Россия, 125310",Москва,Городской округ Красногорск,Москва,Волоколамское шоссе,"71, корпус 4"
55,329,МВидео,"Калужское шоссе, 21-й километр, с1. ТЦ Мега  ",Москва,329_ESL-SES,Поддержка не оплачена,,329,"Москва Калужское шоссе, 21-й километр, с1. ТЦ Мега  ",55.49334229999999,37.3278045,"Калужское ш., 21, Москва, Россия, 142191",Москва,Москва,Москва,Калужское шоссе,21
56,Аэропорт Сочи,Сочи DF,   аэропорт Сочи  ,Сочи,Аэропорт Сочи_ESL-SES,Нет активной поддержки,,Аэропорт Сочи,Сочи    аэропорт Сочи  ,43.4484563,39.9413022,"Международный аэропорт Сочи (Адлер), ул. Мира, 50, Адлер, Краснодарский край, Россия, 354355",Адлер,город-курорт Сочи,Краснодарский край,улица Мира,50
57,201,Спортмастер,"Ленинградское ш., 16А, стр. 4",Москва,201_ESL-SES,Нет активной поддержки,,201,"Москва Ленинградское ш., 16А, стр. 4",55.8227777,37.4974661,"Ленинградское ш., 16А стр 4, Москва, Россия, 125171",Москва,Москва,Москва,Ленинградское шоссе,16А стр 4
58,5780,Спортмастер,"Ходынский бул., 4",Москва,5780_ESL-SES,Нет активной поддержки,,5 780,"Москва Ходынский бул., 4",55.7902813,37.5304166,"Ходынский б-р, 4, Москва, Россия, 125167",Москва,Москва,Москва,Ходынский бульвар,4
59,6664,Спортмастер,"просп. Мира, 211, корп. 2",Москва,6664_ESL-SES,Нет активной поддержки,,6 664,"Москва просп. Мира, 211, корп. 2",55.8448991,37.6598302,"пр-т Мира, 211 корпус 2, Москва, Россия",Москва,Москва,Москва,проспект Мира,211 корпус 2
60,159,Спортмастер,"Варшавское ш., д.129А",Москва,159_ESL-SES,Нет активной поддержки,,159,"Москва Варшавское ш., д.129А",55.614752,37.6127252,"Варшавское ш., 129А, Москва, Россия, 117545",Москва,Москва,Москва,Варшавское шоссе,129А
61,327,Спортмастер,"Ярославское ш. 21-й км, стр. 103",МО,327_ESL-SES,Нет активной поддержки,,327,"МО Ярославское ш. 21-й км, стр. 103",55.98809,37.8678578,"Ярославское ш., 21, Пушкино, Московская обл., Россия, 141205",Пушкино,Пушкинский городской округ,Московская область,Ярославское шоссе,21
62,5876,Спортмастер,"ул. Горная Карусель, 3, село Эстосадок",Сочи,5876_ESL-SES,Нет активной поддержки,,5 876,"Сочи ул. Горная Карусель, 3, село Эстосадок",43.6838731,40.2631084,"ул. Горная Карусель, 3, Эстосадок, Краснодарский край, Россия, 354392",Эстосадок,город-курорт Сочи,Краснодарский край,ул. Горная Карусель,3
63,735,Спортмастер,"Пулковское ш., д.19Б",СПб,735_ESL-SES,Нет активной поддержки,,735,"СПб Пулковское ш., д.19Б",59.82602600000001,30.319699,"Пулковское ш., 19б, Санкт-Петербург, Россия, 196240",Санкт-Петербург,,Санкт-Петербург,Пулковское шоссе,19б
64,6659,Спортмастер,"1-й Покровский пр., 5, Котельники",Москва,6659_ESL-SES,Нет активной поддержки,,6 659,"Москва 1-й Покровский пр., 5, Котельники",55.6576385,37.846899,"1-й Покровский пр-д, 5, Москва, Россия, 140053",Москва,Городской округ Котельники,Москва,1-й Покровский проезд,5
65,5306,Спортмастер,"ул. Новая заря 7, ТЦ Море Молл",Сочи,5306_ESL-SES,Нет активной поддержки,,5 306,"Сочи ул. Новая заря 7, ТЦ Море Молл",43.6048282,39.7324024,"ул. Новая Заря, 7, Сочи, Краснодарский край, Россия, 354071",Сочи,город-курорт Сочи,Краснодарский край,улица Новая Заря,7
66,285,Спортмастер,"ул. Шевченко, д.17/1",Новосибирск,285_ESL-SES,Нет активной поддержки,,285,"Новосибирск ул. Шевченко, д.17/1",55.01674689999999,82.93268259999999,"ул. Шевченко, 17/1, Новосибирск, Новосибирская обл., Россия, 630102",Новосибирск,город Новосибирск,Новосибирская область,улица Шевченко,17/1
67,6924,Спортмастер,"ул. Репина, 94",Екатеринбург,6924_ESL-SES,Нет активной поддержки,,6 924,"Екатеринбург ул. Репина, 94",56.8167947,60.5374751,"ул. Репина, 94, Екатеринбург, Свердловская обл., Россия, 620043",Екатеринбург,город Екатеринбург,Свердловская область,улица Репина,94
68,6972,Спортмастер," Бетанкура ул., д. 3В",Нижний Новгород,6972_ESL-SES,Нет активной поддержки,,6 972,"Нижний Новгород  Бетанкура ул., д. 3В",56.335023,43.95337079999999,"ул. Бетанкура, 3В, Нижний Новгород, Нижегородская обл., Россия, 603159",Нижний Новгород,город Нижний Новгород,Нижегородская область,улица Бетанкура,3В
69,1075004,Теле-2,"г. Ижевск, ул. Удмуртская, д. 255б",,1075004_ESL-SES,На поддержке,Ижевский филиал   Т2 Мобайл ООО,1 075 004," г. Ижевск, ул. Удмуртская, д. 255б",56.8657011,53.2218446,"Удмуртская ул., 255Б, Ижевск, республика Удмуртия, Россия, 426000",Ижевск,город Ижевск,Удмуртская Республика,Удмуртская улица,255Б
70,848049,Теле-2,"г. Ижевск, ул. Ленина, д. 138 (ТЦ «КИТ»)",,848049_ESL-SES,На поддержке,Ижевский филиал   Т2 Мобайл ООО,848 049," г. Ижевск, ул. Ленина, д. 138 (ТЦ «КИТ»)",56.8459113,53.289208,"ул. Ленина, 138, Ижевск, республика Удмуртия, Россия, 426075",Ижевск,город Ижевск,Удмуртская Республика,улица Ленина,138
71,1001879,Теле-2,"г. Ижевск, ул. Петрова, д. 29",,1001879_ESL-SES,На поддержке,Ижевский филиал   Т2 Мобайл ООО,1 001 879," г. Ижевск, ул. Петрова, д. 29",56.8720073,53.2926396,"ул. Петрова, 29, Ижевск, республика Удмуртия, Россия, 426068",Ижевск,город Ижевск,Удмуртская Республика,улица Петрова,29
72,1052070,Теле-2,"г. Ижевск, ул. Холмогорова, д. 11, ТРК «Талисман»",,1052070_ESL-SES,На поддержке,Ижевский филиал   Т2 Мобайл ООО,1 052 070," г. Ижевск, ул. Холмогорова, д. 11, ТРК «Талисман»",56.87685699999999,53.2048517,"ул. Холмогорова, 11, Ижевск, республика Удмуртия, Россия, 426011",Ижевск,город Ижевск,Удмуртская Республика,улица Холмогорова,11
73,771318,Теле-2,"г. Казань, пр-т Победы, д. 91",,771318_ESL-ZKong,Нет активной поддержки,"Казанский филиал ООО ""Т2 Мобайл""",771 318," г. Казань, пр-т Победы, д. 91",55.7695123,49.2166836,"пр-т. Победы, 91, Казань, Респ. Татарстан, Россия, 420140",Казань,город Казань,Республика Татарстан,Проспект Победы,91
74,1017612,Теле-2,"г. Казань, ул. Павлюхина, д. 91",,1017612_ESL-SES,На поддержке,"Казанский филиал ООО ""Т2 Мобайл""",1 017 612," г. Казань, ул. Павлюхина, д. 91",55.7677389,49.1470312,"ул. Павлюхина, 91, Казань, Респ. Татарстан, Россия, 420059",Казань,город Казань,Республика Татарстан,улица Павлюхина,91
75,133119,Теле-2,"г. Казань, ул. Николая Ершова, д. 62",,133119_ESL-ZKong,На поддержке,"Казанский филиал ООО ""Т2 Мобайл""",133 119," г. Казань, ул. Николая Ершова, д. 62",55.7958736,49.1801615,"ул. Николая Ершова, 62, Казань, Респ. Татарстан, Россия, 420061",Казань,город Казань,Республика Татарстан,улица Николая Ершова,62
76,1076665,Теле-2,"г. Набережные Челны, пр-т  Мира, д. 3, ТЦ Торговый квартал",,1076665_ESL-SES,На поддержке,"Казанский филиал ООО ""Т2 Мобайл""",1 076 665," г. Набережные Челны, пр-т  Мира, д. 3, ТЦ Торговый квартал",55.7247857,52.3812838,"пр. Мира, 3, Набережные Челны, Респ. Татарстан, Россия, 423822",Набережные Челны,город Набережные Челны,Республика Татарстан,проспект Мира,3
77,1038422,Теле-2,"г. Новокуйбышевск, пр-т Победы, д. 1Ж",,1038422_ESL-SES,На поддержке,"Самарский   филиал ООО ""Т2 Мобайл""",1 038 422," г. Новокуйбышевск, пр-т Победы, д. 1Ж",53.1017994,49.9584574,"ТЦ ""Сити Парк"", пр. Победы, 1Ж, Новокуйбышевск, Самарская обл., Россия, 446206",Новокуйбышевск,город Новокуйбышевск,Самарская область,проспект Победы,1Ж
78,1071536,Теле-2,"г. Киров, ул. Горького, д. 5а,  ТЦ ДжемМолл",,1071536_ESL-SES,На поддержке,Кировский филиал Т2 Мобайл ООО,1 071 536," г. Киров, ул. Горького, д. 5а,  ТЦ ДжемМолл",58.5984054,49.647464,"ул. Горького, 5а, Киров, Кировская обл., Россия, 610017",Киров,город Киров,Кировская область,улица Горького,5а
79,1082902,Теле-2,"г. Киров, ул. Луганская, д. 53/2",,1082902_ESL-SES,Архивный,Кировский филиал Т2 Мобайл ООО,1 082 902," г. Киров, ул. Луганская, д. 53/2",58.6130898,49.5920521,"ул. Луганская, 53 2, Киров, Кировская обл., Россия, 610044",Киров,город Киров,Кировская область,улица Луганская,53 2
80,1037730,Теле-2,"г. Нижний Новгород, ул. Горького, д. 1",,1037730_ESL-SES,Архивный,Кировский филиал Т2 Мобайл ООО,1 037 730," г. Нижний Новгород, ул. Горького, д. 1",56.3124221,43.9737827,"ул. Максима Горького, 1, Нижний Новгород, Нижегородская обл., Россия, 603000",Нижний Новгород,город Нижний Новгород,Нижегородская область,улица Максима Горького,1
81,753711,Теле-2,"г. Нижний Новгород, ул. Родионова, д. 187В, ТЦ Фантастика",,753711_ESL-SES,Нет активной поддержки,Нижний Новгород Т2 МОБАЙЛ ООО,753 711," г. Нижний Новгород, ул. Родионова, д. 187В, ТЦ Фантастика",56.3073069,44.0748633,"ул. Родионова, 187-B, Нижний Новгород, Нижегородская обл., Россия, 603093",Нижний Новгород,город Нижний Новгород,Нижегородская область,улица Родионова,187-B
82,989314,Теле-2,"г. Нижний Новгород, пл. Революции, д. 9, ТЦ Республика",,989314_ESL-SES,На поддержке,Нижний Новгород Т2 МОБАЙЛ ООО,989 314," г. Нижний Новгород, пл. Революции, д. 9, ТЦ Республика",56.3202951,43.9474916,"площадь Революции, 9, Нижний Новгород, Нижегородская обл., Россия, 603002",Нижний Новгород,город Нижний Новгород,Нижегородская область,площадь Революции,9
83,1066838,Теле-2,"г. Нижний Новгород, ул. Гагарина, д. 35",,1066838_ESL-SES,На поддержке,Нижний Новгород Т2 МОБАЙЛ ООО,1 066 838," г. Нижний Новгород, ул. Гагарина, д. 35",56.2788569,43.8943859,"г. Нижний Новгород, Нижегородская обл., Россия",,город Нижний Новгород,Нижегородская область,,
84,774607,Теле-2,"г. Ульяновск, ул. Гончарова, д. 23",,774607_ESL-SES,На поддержке,"Ульяновский  филиал ООО ""Т2 Мобайл""",774 607," г. Ульяновск, ул. Гончарова, д. 23",54.3192068,48.3975479,"ул. Гончарова, 23, Ульяновск, Ульяновская обл., Россия, 432063",Ульяновск,город Ульяновск,Ульяновская область,улица Гончарова,23
85,750453,Теле-2,"г. Ульяновск,  Московское ш., д. 108",,750453_ESL-SES,На поддержке,"Ульяновский  филиал ООО ""Т2 Мобайл""",750 453," г. Ульяновск,  Московское ш., д. 108",54.3063978,48.361,"Московское ш., 108, Ульяновск, Ульяновская обл., Россия, 432063",Ульяновск,город Ульяновск,Ульяновская область,Московское шоссе,108
86,754122,Теле-2,"г. Ульяновск, Ульяновский пр-т, д. 1",,754122_ESL-SES,На поддержке,"Ульяновский  филиал ООО ""Т2 Мобайл""",754 122," г. Ульяновск, Ульяновский пр-т, д. 1",54.36927499999999,48.587138,"ТЦ ""Самолет, пр. д, 1, Ульяновск, Ульяновская обл., Россия, 432072",Ульяновск,город Ульяновск,Ульяновская область,пр. д,1
87,751522,Теле-2,"г. Чебоксары, ул. Калинина, д. 105а",,751522_ESL-SES,На поддержке,"Чебоксарский филиал ООО ""Т2 МОБАЙЛ""",751 522," г. Чебоксары, ул. Калинина, д. 105а",56.1376804,47.2780205,"улица Калинина, 105а, Чебоксары, Чувашская Респ., Россия, 428003",Чебоксары,город Чебоксары,Чувашская Республика,улица Калинина,105а
88,144766,Теле-2,"г. Нижний Новгород, ул. Гордеевская, 2А",,144766_,Нет активной поддержки,Нижний Новгород Т2 МОБАЙЛ ООО,144 766," г. Нижний Новгород, ул. Гордеевская, 2А",56.3240999,43.9454157,"ул. Гордеевская, 2А, Нижний Новгород, Нижегородская обл., Россия, 603116",Нижний Новгород,город Нижний Новгород,Нижегородская область,улица Гордеевская,2А
89,889402,Теле-2,"г. Владивосток, пр-т 100-летия Владивостоку, д. 43",,889402_ESL-SES,На поддержке,"Приморский филиал ООО Т2 Мобайл""",889 402," г. Владивосток, пр-т 100-летия Владивостоку, д. 43",43.1518525,131.9078407,"пр-т. 100-летия Владивостока, 43, Владивосток, Приморский край, Россия, 690048",Владивосток,город Владивосток,Приморский край,проспект 100-летия Владивостока,43
90,738936,Теле-2,"г. Владивосток, ул. Луговая, д. 18",,738936_ESL-SES,На поддержке,"Приморский филиал ООО Т2 Мобайл""",738 936," г. Владивосток, ул. Луговая, д. 18",43.1301538,131.935529,"ул. Луговая, 18, Владивосток, Приморский край, Россия, 690087",Владивосток,город Владивосток,Приморский край,улица Луговая,18
91,78865,Теле-2,"г. Южно-Сахалинск, ул. Ленина, д. 196",,78865_ESL-SES,На поддержке,"Сахалинский филиал ООО ""Т2 Мобайл""",78 865," г. Южно-Сахалинск, ул. Ленина, д. 196",46.9614184,142.7287427,"ул. Ленина, 196, Южно-Сахалинск, Сахалинская обл., Россия, 693020",Южно-Сахалинск,город Южно-Сахалинск,Сахалинская область,улица Ленина,196
92,1002168,Теле-2,"г. Улан-Удэ, ул. Ленина , д. 26",,1002168_ESL-SES,На поддержке,Бурятский филиал Т2 МОБАЙЛ ООО,1 002 168," г. Улан-Удэ, ул. Ленина , д. 26",51.828038,107.5854724,"ул. Ленина, 26, Улан-Удэ, Респ. Бурятия, Россия, 670000",Улан-Удэ,город Улан-Удэ,Республика Бурятия,улица Ленина,26
93,741366,Теле-2,"г. Улан-Удэ, ул. Жердева, д. 104",,741366_ESL-SES,На поддержке,Бурятский филиал Т2 МОБАЙЛ ООО,741 366," г. Улан-Удэ, ул. Жердева, д. 104",51.8107459,107.661567,"ТЦ""Заря, ул. Жердева, 104, Улан-Удэ, Респ. Бурятия, Россия, 670033",Улан-Удэ,город Улан-Удэ,Республика Бурятия,улица Жердева,104
94,747383,Теле-2,"Иркутская обл., г. Ангарск, 8-й мкрн,, д. 1",,747383_ESL-ZKong,На поддержке,Иркутский филиал Т2 МОБАЙЛ ООО,747 383," Иркутская обл., г. Ангарск, 8-й мкрн,, д. 1",52.5146013,103.86921,"8-й мкр., 1, Ангарск, Иркутская обл., Россия, 665833",Ангарск,город Ангарск,Иркутская область,8-й микрорайон,1
95,746835,Теле-2,"Иркутская обл., г. Ангарск, квартал 58, д. 1",,746835_ESL-SES,На поддержке,Иркутский филиал Т2 МОБАЙЛ ООО,746 835," Иркутская обл., г. Ангарск, квартал 58, д. 1",52.5451248,103.8881154,"Ангарск, Иркутская обл., Россия",Ангарск,город Ангарск,Иркутская область,,
96,747392,Теле-2,"г. Иркутск, ул. Ленина, д. 25",,747392_ESL-SES,На поддержке,Иркутский филиал Т2 МОБАЙЛ ООО,747 392," г. Иркутск, ул. Ленина, д. 25",52.2766215,104.2860794,"ул. Ленина, 25, Иркутск, Иркутская обл., Россия, 664003",Иркутск,город Иркутск,Иркутская область,улица Ленина,25
97,812134,Теле-2,"г. Иркутск, ул. Литвинова, д. 17",,812134_ESL-SES,На поддержке,Иркутский филиал Т2 МОБАЙЛ ООО,812 134," г. Иркутск, ул. Литвинова, д. 17",52.28212329999999,104.2945849,"ул. Литвинова, 17, Иркутск, Иркутская обл., Россия, 664003",Иркутск,город Иркутск,Иркутская область,улица Литвинова,17
98,113657,Теле-2,"г. Иркутск,ул. Сергеева, д. 3/5",,113657_ESL-ZKong,На поддержке,Иркутский филиал Т2 МОБАЙЛ ООО,113 657," г. Иркутск,ул. Сергеева, д. 3/5",52.2658723,104.2268462,"ул. Сергеева, 3/5, Иркутск, Иркутская обл., Россия, 664043",Иркутск,город Иркутск,Иркутская область,улица Сергеева,3/5
99,1018178,Теле-2,"г. Иркутск,  Юбилейный мкрн, д. 19/1",,1018178_ESL-SES,На поддержке,Иркутский филиал Т2 МОБАЙЛ ООО,1 018 178," г. Иркутск,  Юбилейный мкрн, д. 19/1",52.2279324,104.2989262,"ул. Юбилейный микрорайон, 19/1, Иркутск, Иркутская обл., Россия, 664056",Иркутск,город Иркутск,Иркутская область,улица Юбилейный микрорайон,19/1
100,747395,Теле-2,"г. Иркутск, ул. Свердлова, д. 36",,747395_ESL-SES,На поддержке,Иркутский филиал Т2 МОБАЙЛ ООО,747 395," г. Иркутск, ул. Свердлова, д. 36",52.2863617,104.2884036,"ул. Свердлова, 36, Иркутск, Иркутская обл., Россия, 664011",Иркутск,город Иркутск,Иркутская область,улица Свердлова,36
101,1133182,Теле-2,"г. Хабаровск, ул. Пионерская, д. 2-В",,1133182_ESL-SES,На поддержке,Хабаровский филиал Т2 Мобайл,1 133 182," г. Хабаровск, ул. Пионерская, д. 2-В",48.4642185,135.0736798,"Пионерская ул., 2, в, Хабаровск, Хабаровский край, Россия, 680003",Хабаровск,город Хабаровск,Хабаровский край,Пионерская улица,2
102,1125920,Теле-2,"г. Хабаровск, ул. Муравьева-Амурского, д. 31",,1125920_ESL-SES,На поддержке,Хабаровский филиал Т2 Мобайл,1 125 920," г. Хабаровск, ул. Муравьева-Амурского, д. 31",48.4789184,135.0686886,"ул. Муравьева-Амурского, 31, Хабаровск, Хабаровский край, Россия, 680000",Хабаровск,город Хабаровск,Хабаровский край,улица Муравьева-Амурского,31
103,29420,Теле-2,"г. Александров, ул. Ленина, д. 7 ",,29420_ESL-SES,На поддержке,"Владимирский филиал ООО ""Т2 Мобайл""",29 420," г. Александров, ул. Ленина, д. 7 ",56.3974439,38.7120699,"ул. Ленина, 7, Александров, Владимирская обл., Россия, 601650",Александров,город Александров,Владимирская область,улица Ленина,7
104,21008,Теле-2,"г. Ковров, пр-т Ленина, д. 59",,21008_ESL-SES,На поддержке,"Владимирский филиал ООО ""Т2 Мобайл""",21 008," г. Ковров, пр-т Ленина, д. 59",56.351574,41.310966,"пр. Ленина, 59, Ковров, Владимирская обл., Россия, 601910",Ковров,город Ковров,Владимирская область,проспект Ленина,59
105,20900,Теле-2,"г. Калуга, ул. Кирова, д. 46",,20900_ESL-SES,На поддержке,"Калужский филиал ООО ""Т2 Мобайл""",20 900," г. Калуга, ул. Кирова, д. 46",54.5139946,36.25742839999999,"ул. Кирова, 46, Калуга, Калужская обл., Россия, 248001",Калуга,город Калуга,Калужская область,улица Кирова,46
106,993207,Теле-2,"г. Калуга, ул. Кирова, д. 13",,993207_ESL-SES,На поддержке,"Калужский филиал ООО ""Т2 Мобайл""",993 207," г. Калуга, ул. Кирова, д. 13",54.5153714,36.2505236,"ул. Кирова, 13, Калуга, Калужская обл., Россия, 248001",Калуга,город Калуга,Калужская область,улица Кирова,13
107,996429,Теле-2,"г. Рязань, ул. Новоселов, д. 30А",,996429_ESL-SES,На поддержке,"Рязанский филиал ООО ""Т2 Мобайл""",996 429," г. Рязань, ул. Новоселов, д. 30А",54.6087265,39.8073656,"ул. Новоселов, 30А, Рязань, Рязанская обл., Россия, 390048",Рязань,город Рязань,Рязанская область,улица Новоселов,30А
108, Б/Н,Теле-2,"г. Рязань, Московское ш., д.65А",, Б/Н_,Архивный,"Рязанский филиал ООО ""Т2 Мобайл""", Б/Н," г. Рязань, Московское ш., д.65А",54.65047329999999,39.6368413,"Московское ш., 65А, Рязань, Рязанская обл., Россия, 390044",Рязань,город Рязань,Рязанская область,Московское шоссе,65А
109,1004742,Теле-2,"г. Смоленск, ул. Желябова, д. 1 ТЦ ""Байкал"" ",,1004742_ESL-SES,Архивный,"Смоленский филиал ООО ""Т2 Мобайл""",1 004 742," г. Смоленск, ул. Желябова, д. 1 ТЦ ""Байкал"" ",54.7946725,32.0430312,"ТЦ ""Байкал"", ул. Желябова, 1, Смоленск, Смоленская обл., Россия, 214012",Смоленск,город Смоленск,Смоленская область,улица Желябова,1
110,1067325,Теле-2,"г. Смоленск, пр-т Гагарина, д. 1",,1067325_ESL-SES,Нет активной поддержки,"Смоленский филиал ООО ""Т2 Мобайл""",1 067 325," г. Смоленск, пр-т Гагарина, д. 1",54.7776237,32.0507534,"пр. Гагарина, 1, Смоленск, Смоленская обл., Россия, 214000",Смоленск,город Смоленск,Смоленская область,проспект Гагарина,1
111,989315,Теле-2,"г. Иваново, ул. Строителей, д. 25",,989315_ESL-SES,Архивный,Ивановский филиал Т2 МОБАЙЛ ООО,989 315," г. Иваново, ул. Строителей, д. 25",56.96464659999999,40.9894515,"пр. Строителей, 25, Иваново, Ивановская обл., Россия, 153040",Иваново,город Иваново,Ивановская область,проспект Строителей,25
112,28678,Теле-2,"г. Богородицк, ул. Ленина, д.12",,28678_ESL-SES,Нет активной поддержки,"Тульский филиал ООО ""Т2 Мобайл""",28 678," г. Богородицк, ул. Ленина, д.12",53.7709066,38.130375,"ул. Ленина, 12, Богородицк, Тульская обл., Россия, 301835",Богородицк,город Богородицк,Тульская область,улица Ленина,12
113,1001973,Теле-2,"г. Тула, ул. Аркадия Шипунова, д. 1Г (Глобус) -",,1001973_ESL-SES,Нет активной поддержки,"Тульский филиал ООО ""Т2 Мобайл""",1 001 973," г. Тула, ул. Аркадия Шипунова, д. 1Г (Глобус) -",54.17632210000001,37.6465396,"ул. Аркадия Шипунова, 1А, Осиновая Гора, Тульская обл., Россия, 300045",Осиновая Гора,город Тула,Тульская область,улица Аркадия Шипунова,1А
114,1001790,Теле-2,"г. Тула, ул . Металлургов, д.62а",,1001790_ESL-SES,Нет активной поддержки,"Тульский филиал ООО ""Т2 Мобайл""",1 001 790," г. Тула, ул . Металлургов, д.62а",54.1920084,37.6886859,"ул. Металлургов, 62а, Тула, Тульская обл., Россия, 300027",Тула,город Тула,Тульская область,улица Металлургов,62а
115,128202,Теле-2,"г. Тула, ул. Пролетарская, д. 2",,128202_ESL-ZKong,Нет активной поддержки,"Тульский филиал ООО ""Т2 Мобайл""",128 202," г. Тула, ул. Пролетарская, д. 2",54.1939465,37.63721839999999,"ул. Пролетарская, 2, Тула, Тульская обл., Россия, 300001",Тула,город Тула,Тульская область,улица Пролетарская,2
116,77705,Теле-2,"г. Тула, ул. Демонстрации, д. 1Г",,77705_ESL-SES,На поддержке,"Тульский филиал ООО ""Т2 Мобайл""",77 705," г. Тула, ул. Демонстрации, д. 1Г",54.1926851,37.6120513,"Демонстрации ул., 1Г, Тула, Тульская обл., Россия, 300041",Тула,город Тула,Тульская область,Демонстрации улица,1Г
117,1000878,Теле-2,"г. Тула, Красноармейский пр-т, д. 2",,1000878_ESL-SES,На поддержке,"Тульский филиал ООО ""Т2 Мобайл""",1 000 878," г. Тула, Красноармейский пр-т, д. 2",54.1967767,37.6108775,"Красноармейский пр., 2, Тула, Тульская обл., Россия, 300041",Тула,город Тула,Тульская область,Красноармейский проспект,2
118,998406,Теле-2,"г. Тула, ул. Советская, д. 47",,998406_ESL-SES,Архивный,"Тульский филиал ООО ""Т2 Мобайл""",998 406," г. Тула, ул. Советская, д. 47",54.19193929999999,37.6189978,"ул. Советская, 47, Тула, Тульская обл., Россия, 300041",Тула,город Тула,Тульская область,улица Советская,47
119,53113,Теле-2,"г. Узловая, ул. Беклемищева, д. 40",,53113_ESL-SES,Нет активной поддержки,"Тульский филиал ООО ""Т2 Мобайл""",53 113," г. Узловая, ул. Беклемищева, д. 40",53.97828690000001,38.156804,"ул. Беклемищева, 40, Узловая, Тульская обл., Россия, 301600",Узловая,город Узловая,Тульская область,улица Беклемищева,40
120,889404,Теле-2,"г. Архангельск, Ленинградский, 38 - модуль ",,889404_ESL-SES,Архивный,"Архангельский филиал ООО ""Т2 МОБАЙЛ""",889 404," г. Архангельск, Ленинградский, 38 - модуль ",64.52403410000001,40.59762509999999,"Ленинградский пр-т., 38, Архангельск, Архангельская обл., Россия, 163000",Архангельск,Архангельск,Архангельская область,Ленинградский проспект,38
121,118154,Теле-2,"г. Архангельск, Ленинградский пр-т, д. 255",,118154_ESL-ZKong,Нет активной поддержки,"Архангельский филиал ООО ""Т2 МОБАЙЛ""",118 154," г. Архангельск, Ленинградский пр-т, д. 255",64.51026039999999,40.6639845,"Ленинградский пр-т., 255, Архангельск, Архангельская обл., Россия, 163062",Архангельск,Архангельск,Архангельская область,Ленинградский проспект,255
122,122008,Теле-2,"г. Архангельск, Воскресенская ул., д. 20, ТЦ Титан Арена",,122008_ESL-ZKong,Нет активной поддержки,"Архангельский филиал ООО ""Т2 МОБАЙЛ""",122 008," г. Архангельск, Воскресенская ул., д. 20, ТЦ Титан Арена",64.5420743,40.5349386,"Воскресенская ул., 20, Архангельск, Архангельская обл., Россия, 163046",Архангельск,Архангельск,Архангельская область,Воскресенская улица,20
123,114419,Теле-2,"г. Архангельск, Ленинградский пр-т, д. 38 ТРЦ Макси",,114419_ESL-ZKong,На поддержке,"Архангельский филиал ООО ""Т2 МОБАЙЛ""",114 419," г. Архангельск, Ленинградский пр-т, д. 38 ТРЦ Макси",64.5245186,40.601422,"Ленинградский пр-т., 38, Архангельск, Архангельская обл., Россия, 163009",Архангельск,Архангельск,Архангельская область,Ленинградский проспект,38
124,825255,Теле-2,"г. Северодвинск, ул. Ленина, д. 35",,825255_ESL-ZKong,Нет активной поддержки,"Архангельский филиал ООО ""Т2 МОБАЙЛ""",825 255," г. Северодвинск, ул. Ленина, д. 35",64.557901,39.830726,"пр. Ленина, 35-37, Северодвинск, Архангельская обл., Россия, 164507",Северодвинск,город Северодвинск,Архангельская область,проспект Ленина,35-37
125,137744,Теле-2,"г. Северодвинск, Морской пр. 70",,137744_ESL-ZKong,Нет активной поддержки,"Архангельский филиал ООО ""Т2 МОБАЙЛ""",137 744," г. Северодвинск, Морской пр. 70",64.5351479,39.7780875,"ТЦ ""Сити"", просп. Морской, 70, Северодвинск, Архангельская обл., Россия, 164523",Северодвинск,город Северодвинск,Архангельская область,проспект Морской,70
126,107761,Теле-2,"г. Вологда, ш. Окружное, д. 12, ТЦ ""РИО”",,107761_ESL-SES,Нет активной поддержки,"Вологодский филиал ООО ""Т2 Мобайл""",107 761," г. Вологда, ш. Окружное, д. 12, ТЦ ""РИО”",59.2027555,39.81259319999999,"Окружное ш., 12, Вологда, Вологодская обл., Россия, 160028",Вологда,город Вологда,Вологодская область,Окружное шоссе,12
127,854537,Теле-2,"г. Вологда,ул. Карла Маркса, д. 105",,854537_ESL-ZKong,Нет активной поддержки,"Вологодский филиал ООО ""Т2 Мобайл""",854 537," г. Вологда,ул. Карла Маркса, д. 105",59.2168996,39.9323797,"ул. Карла Маркса, 105, Вологда, Вологодская обл., Россия, 160024",Вологда,город Вологда,Вологодская область,улица Карла Маркса,105
128,808232,Теле-2,"г. Череповец, ул. Победы, д. 200",,808232_ESL-SES,Нет активной поддержки,"Вологодский филиал ООО ""Т2 Мобайл""",808 232," г. Череповец, ул. Победы, д. 200",59.1196917,38.00101170000001,"ул. Победы, 200, Череповец, Вологодская обл., Россия, 162624",Череповец,город Череповец,Вологодская область,улица Победы,200
129,116412,Теле-2,"г. Череповец, Октябрьский пр-т, д. 25",,116412_ESL-ZKong,Нет активной поддержки,"Вологодский филиал ООО ""Т2 Мобайл""",116 412," г. Череповец, Октябрьский пр-т, д. 25",59.132333,37.9091811,"Череповец, Вологодская обл., Россия",Череповец,город Череповец,Вологодская область,,
130,104112,Теле-2,"г. Санкт-Петербург, ул. Брантовская дорога, д.3   mt49 мт",,104112_ESL-SES,Нет активной поддержки,,104 112," г. Санкт-Петербург, ул. Брантовская дорога, д.3   mt49 мт",59.9402023,30.4184351,"Брантовская дор., 3, Санкт-Петербург, Россия, 195027",Санкт-Петербург,,Санкт-Петербург,Брантовская дорога,3
131,1067836,Теле-2,"г. Калининград, п. Орловка, Приморское кольцо, Балтия Молл",,1067836_ESL-SES,Архивный,"Калининградский филиал ООО ""Т2 Мобайл""",1 067 836," г. Калининград, п. Орловка, Приморское кольцо, Балтия Молл",54.7929425,20.5292623,"Орловка, Калининградская обл., Россия",Орловка,Гурьевский район,Калининградская область,,
132,131970,Теле-2,"г. Калининград, Советский пр-т, д. 8, ТЦ Спар",,131970_ESL-ZKong,Нет активной поддержки,"Калининградский филиал ООО ""Т2 Мобайл""",131 970," г. Калининград, Советский пр-т, д. 8, ТЦ Спар",54.722594,20.500268,"Советский пр., 8, Калининград, Калининградская обл., Россия, 236022",Калининград,город Калининград,Калининградская область,Советский проспект,8
133,1121867,Теле-2,"г. Мурманск, ул. Ленинградская, д. 20/3, ТЦ «Волна». -",,1121867_ESL-SES,Нет активной поддержки,"Мурманский филиал ООО ""Т2 Мобайл""",1 121 867," г. Мурманск, ул. Ленинградская, д. 20/3, ТЦ «Волна». -",68.970486,33.071077,"Ленинградская ул., 20/3, Мурманск, Мурманская обл., Россия, 183038",Мурманск,город Мурманск,Мурманская область,Ленинградская улица,20/3
134,64339,Теле-2,"г. Мурманск, пр-т Ленина, д. 74",,64339_ESL-ZKong,Нет активной поддержки,"Мурманский филиал ООО ""Т2 Мобайл""",64 339," г. Мурманск, пр-т Ленина, д. 74",68.9663332,33.0731215,"пр. Ленина, 74, Мурманск, Мурманская обл., Россия, 183038",Мурманск,город Мурманск,Мурманская область,проспект Ленина,74
135,1001795,Теле-2,"г. Мурманск, пр-т Ленина, д. 32 ТЦ Молл -",,1001795_ESL-SES,На поддержке,"Мурманский филиал ООО ""Т2 Мобайл""",1 001 795," г. Мурманск, пр-т Ленина, д. 32 ТЦ Молл -",68.9565373,33.0687278,"пр. Ленина, 32, Мурманск, Мурманская обл., Россия, 183038",Мурманск,город Мурманск,Мурманская область,проспект Ленина,32
136,1121407,Теле-2,"г. Великий Новгород, ул. Ломоносова, д. 29, ТЦ Мармелад",,1121407_ESL-SES,Нет активной поддержки,Новгородский филиал Т2 МОБАЙЛ ООО,1 121 407," г. Великий Новгород, ул. Ломоносова, д. 29, ТЦ Мармелад",58.54072060000001,31.2454436,"ул. Ломоносова, 29, Великий Новгород, Новгородская обл., Россия, 173016",Великий Новгород,город Великий Новгород,Новгородская область,улица Ломоносова,29
137,839057,Теле-2,"г. Великий Новгород, ул. Большая Санкт-Петербургская, д. 130",,839057_ESL-ZKong,Нет активной поддержки,Новгородский филиал Т2 МОБАЙЛ ООО,839 057," г. Великий Новгород, ул. Большая Санкт-Петербургская, д. 130",58.56518550000001,31.2799915,"Большая Санкт-Петербургская ул., 130, Великий Новгород, Новгородская обл., Россия, 173008",Великий Новгород,город Великий Новгород,Новгородская область,Большая Санкт-Петербургская улица,130
138,25712,Теле-2,"г. Петрозаводск, ул. Ленина, д. 37",,25712_ESL-SES,Нет активной поддержки,"Петрозаводский филиал ООО ""Т2 Мобайл""",25 712," г. Петрозаводск, ул. Ленина, д. 37",61.77816170000001,34.3640396,"Петрозаводск, Респ. Карелия, Россия",Петрозаводск,город Петрозаводск,Республика Карелия,,
139,831096,Теле-2,"г. Петрозаводск, пр-т Ленина, д. 14",,831096_ESL-ZKong,Нет активной поддержки,"Петрозаводский филиал ООО ""Т2 Мобайл""",831 096," г. Петрозаводск, пр-т Ленина, д. 14",61.791287,34.3642208,"пр. Ленина, 14, Петрозаводск, Респ. Карелия, Россия, 185035",Петрозаводск,город Петрозаводск,Республика Карелия,проспект Ленина,14
140,991417,Теле-2,"г. Псков, д. Борисовичи, ул. Завеличенская, д. 23,  ТРЦ ""Fjord Plaza"", пом. 1.1.32",,991417_ESL-SES,Нет активной поддержки,"Псковский филиал ООО ""Т2 Мобайл",991 417," г. Псков, д. Борисовичи, ул. Завеличенская, д. 23,  ТРЦ ""Fjord Plaza"", пом. 1.1.32",57.79869579999999,28.334504,"Завеличенская наб., 23, Борисовичи, Псковская обл., Россия, 180002",Борисовичи,город Псков,Псковская область,Завеличенская набережная,23
141,948195,Теле-2,"г. Псков, ул. Яна Фабрициуса, д.5в",,948195_ESL-ZKong,На поддержке,"Псковский филиал ООО ""Т2 Мобайл",948 195," г. Псков, ул. Яна Фабрициуса, д.5в",57.80602400000001,28.34765,"ул. Яна Фабрициуса, 5В, Псков, Псковская обл., Россия, 180017",Псков,город Псков,Псковская область,улица Яна Фабрициуса,5В
142,95715,Теле-2,"г. Гатчина, ул. Соборная, д. 10",,95715_ESL-SES,Нет активной поддержки,"Санкт-Петербургский филиал ООО ""Т2 МОБАЙЛ""",95 715," г. Гатчина, ул. Соборная, д. 10",59.5661685,30.1242871,"Соборная ул., 10, Гатчина, Ленинградская обл., Россия, 188300",Гатчина,Гатчинский район,Ленинградская область,Соборная улица,10
143,937753,Теле-2,"г. Гатчина, Пушкинское ш., д. 15",,937753_ESL-ZKong,Нет активной поддержки,"Санкт-Петербургский филиал ООО ""Т2 МОБАЙЛ""",937 753," г. Гатчина, Пушкинское ш., д. 15",59.58273389999999,30.14635179999999,"Пушкинское ш., 15, Гатчина, Ленинградская обл., Россия, 188306",Гатчина,Гатчинский район,Ленинградская область,Пушкинское шоссе,15
144,50203,Теле-2,"г. Пушкин, ул. Оранжерейная, д. 23",,50203_ESL-SES,Нет активной поддержки,"Санкт-Петербургский филиал ООО ""Т2 МОБАЙЛ""",50 203," г. Пушкин, ул. Оранжерейная, д. 23",59.71967289999999,30.4089883,"Оранжерейная ул., 23, Санкт-Петербург, Россия, 196601",Санкт-Петербург,,Санкт-Петербург,Оранжерейная улица,23
145,742871,Теле-2,"г. Санкт-Петербург, ул. Комендантская, д. 1, ТЦ_Атмосфера",,742871_ESL-ZKong,Нет активной поддержки,"Санкт-Петербургский филиал ООО ""Т2 МОБАЙЛ""",742 871," г. Санкт-Петербург, ул. Комендантская, д. 1, ТЦ_Атмосфера",60.00762750000001,30.2597394,"Комендантская пл., 1, лит.А, Санкт-Петербург, Россия, 197372",Санкт-Петербург,,Санкт-Петербург,Комендантская площадь,"1, лит.А"
146,120732,Теле-2,"г. Санкт-Петербург, пр-т Просвещения, д. 19, ТЦ Норд",,120732_ESL-SES,Нет активной поддержки,"Санкт-Петербургский филиал ООО ""Т2 МОБАЙЛ""",120 732," г. Санкт-Петербург, пр-т Просвещения, д. 19, ТЦ Норд",60.0522412,30.3331041,"пр. Просвещения, 19, Санкт-Петербург, Россия, 194358",Санкт-Петербург,,Санкт-Петербург,проспект Просвещения,19
147,1017610,Теле-2,"г. Санкт-Петербург,  Славы 43",,1017610_ESL-SES,Нет активной поддержки,"Санкт-Петербургский филиал ООО ""Т2 МОБАЙЛ""",1 017 610," г. Санкт-Петербург,  Славы 43",59.8580219,30.3901808,"пр-т. Славы, 43, Санкт-Петербург, Россия, 192071",Санкт-Петербург,,Санкт-Петербург,проспект Славы,43
148,1039115,Теле-2,"г. Санкт-Петербург, пр-т Просвещения , д. 74",,1039115_ESL-SES,Нет активной поддержки,"Санкт-Петербургский филиал ООО ""Т2 МОБАЙЛ""",1 039 115," г. Санкт-Петербург, пр-т Просвещения , д. 74",60.0419989,30.3914545,"пр. Просвещения, 74, Санкт-Петербург, Россия, 195276",Санкт-Петербург,,Санкт-Петербург,проспект Просвещения,74
149,850522,Теле-2,"г. Санкт-Петербург, ул. Бухарестская, д. 89",,850522_ESL-SES,Нет активной поддержки,"Санкт-Петербургский филиал ООО ""Т2 МОБАЙЛ""",850 522," г. Санкт-Петербург, ул. Бухарестская, д. 89",59.8329668,30.4140137,"Бухарестская ул., 89, Санкт-Петербург, Россия, 192283",Санкт-Петербург,,Санкт-Петербург,Бухарестская улица,89
150,114537,Теле-2,"г. Санкт-Петербург, ул. Ленсовета, д. 97А",,114537_ESL-ZKong,Нет активной поддержки,"Санкт-Петербургский филиал ООО ""Т2 МОБАЙЛ""",114 537," г. Санкт-Петербург, ул. Ленсовета, д. 97А",59.83234090000001,30.349063,"ул. Ленсовета, 97А, Санкт-Петербург, Россия, 196158",Санкт-Петербург,,Санкт-Петербург,улица Ленсовета,97А
151,127740,Теле-2,"г. Санкт-Петербург, ул. Бухарестская, д. 30",,127740_ESL-ZKong,Нет активной поддержки,"Санкт-Петербургский филиал ООО ""Т2 МОБАЙЛ""",127 740," г. Санкт-Петербург, ул. Бухарестская, д. 30",59.88298639999999,30.369846,"Бухарестская ул., 30/32, Санкт-Петербург, Россия, 192071",Санкт-Петербург,,Санкт-Петербург,Бухарестская улица,30/32
152,827944,Теле-2,"г. Санкт-Петербург, пр-т Большевиков, д. 18",,827944_ESL-SES,Нет активной поддержки,"Санкт-Петербургский филиал ООО ""Т2 МОБАЙЛ""",827 944," г. Санкт-Петербург, пр-т Большевиков, д. 18",59.90835629999999,30.4829294,"пр. Большевиков, 18, Санкт-Петербург, Россия, 193168",Санкт-Петербург,,Санкт-Петербург,проспект Большевиков,18
153,77611,Теле-2,"г. Санкт-Петербург, Каменоостровский пр-т, д. 42",,77611_ESL-SES,Нет активной поддержки,"Санкт-Петербургский филиал ООО ""Т2 МОБАЙЛ""",77 611," г. Санкт-Петербург, Каменоостровский пр-т, д. 42",59.96746939999999,30.3090712,"Каменноостровский пр., 42, Санкт-Петербург, Россия, 197101",Санкт-Петербург,,Санкт-Петербург,Каменноостровский проспект,42
154,930315,Теле-2,"г. Санкт-Петербург, Мурманское ш., 12-й км",,930315_ESL-SES,На поддержке,"Санкт-Петербургский филиал ООО ""Т2 МОБАЙЛ""",930 315," г. Санкт-Петербург, Мурманское ш., 12-й км",59.8944626,30.5172813,"Мурманское ш., 12-й км, Санкт-Петербург, Ленинградская обл., Россия, 193315",Санкт-Петербург,Всеволожский район,Ленинградская область,Мурманское шоссе,12-й км
155,914886,Теле-2,"г. Санкт-Петербург, ул. Коллонтай, д. 3",,914886_ESL-SES,На поддержке,"Санкт-Петербургский филиал ООО ""Т2 МОБАЙЛ""",914 886," г. Санкт-Петербург, ул. Коллонтай, д. 3",59.91186,30.4464636,"ул. Коллонтай, 3, Санкт-Петербург, Россия, 193313",Санкт-Петербург,,Санкт-Петербург,улица Коллонтай,3
156,837896,Теле-2,"г. Санкт-Петербург, пр-т Ветеранов, д. 101",,837896_ESL-SES,На поддержке,"Санкт-Петербургский филиал ООО ""Т2 МОБАЙЛ""",837 896," г. Санкт-Петербург, пр-т Ветеранов, д. 101",59.8343563,30.2058842,"пр-т. Ветеранов, 101, T, Санкт-Петербург, Россия, 190000",T,,Санкт-Петербург,Проспект Ветеранов,101
157,118949,Теле-2,"г. Санкт-Петербург, пр-т Культуры, д.1, ТРК Родео Драйв",,118949_,Архивный,"Санкт-Петербургский филиал ООО ""Т2 МОБАЙЛ""",118 949," г. Санкт-Петербург, пр-т Культуры, д.1, ТРК Родео Драйв",60.03373509999999,30.367622,"пр. Культуры, 1, Санкт-Петербург, Россия, 195274",Санкт-Петербург,,Санкт-Петербург,проспект Культуры,1
158,946405,Теле-2,"г. Санкт-Петербург, Прибрежная ул., д. 20",,946405_ESL-SES,На поддержке,"Санкт-Петербургский филиал ООО ""Т2 МОБАЙЛ""",946 405," г. Санкт-Петербург, Прибрежная ул., д. 20",59.83192529999999,30.5053244,"Прибрежная ул., 20, Санкт-Петербург, Россия, 192177",Санкт-Петербург,,Санкт-Петербург,Прибрежная улица,20
159,1068771,Теле-2,"г. Санкт-Петербург, Московский пр-т, д. 216 ",,1068771_ESL-SES,Архивный,"Санкт-Петербургский филиал ООО ""Т2 МОБАЙЛ""",1 068 771," г. Санкт-Петербург, Московский пр-т, д. 216 ",59.84872240000001,30.3223279,"Московский пр-т., 216, Санкт-Петербург, Россия, 196066",Санкт-Петербург,,Санкт-Петербург,Московский проспект,216
160,1072254,Теле-2,"г. Санкт-Петербург, ул. Долгоозерная, д. 14к2, ТЦ_5_Озер - ",,1072254_ESL-SES,Архивный,"Санкт-Петербургский филиал ООО ""Т2 МОБАЙЛ""",1 072 254," г. Санкт-Петербург, ул. Долгоозерная, д. 14к2, ТЦ_5_Озер - ",60.01661729999999,30.2462857,"Долгоозeрная ул., 14к2, Санкт-Петербург, Россия, 197373",Санкт-Петербург,,Санкт-Петербург,Долгоозeрная улица,14к2
161,907272,Теле-2,"г. Мурино, б-р Менделеева, д.1А",,907272_ESL-SES,На поддержке,"Санкт-Петербургский филиал ООО ""Т2 МОБАЙЛ""",907 272," г. Мурино, б-р Менделеева, д.1А",60.05019429999999,30.4409615,"б-р Менделеева, 1а, Мурино, Ленинградская обл., Россия, 188662",Мурино,Всеволожский район,Ленинградская область,бульвар Менделеева,1а
162,130056,Теле-2,"г. СПб, Большой пр.В.О. 68",,130056_ESL-ZKong,На поддержке,"Санкт-Петербургский филиал ООО ""Т2 МОБАЙЛ""",130 056," г. СПб, Большой пр.В.О. 68",59.93183730000001,30.2598867,"Большой проспект Васильевского острова, д. 68, Санкт-Петербург, Россия, 199106",Санкт-Петербург,,Санкт-Петербург,Большой проспект Васильевского острова,д. 68
163,68861,Теле-2,"г. Санкт-Петербург, Московский, 2",,68861_ESL-ZKong,На поддержке,"Санкт-Петербургский филиал ООО ""Т2 МОБАЙЛ""",68 861," г. Санкт-Петербург, Московский, 2",59.8675808,30.3186271,"д163, 2, Санкт-Петербург, Россия, 196070",Санкт-Петербург,,Санкт-Петербург,д163,2
164,40398,Теле-2,"г. Колпино, ул. Октябрьская, д. 8 ",,40398_ESL-ZKong,Нет активной поддержки,"Санкт-Петербургский филиал ООО ""Т2 МОБАЙЛ""",40 398," г. Колпино, ул. Октябрьская, д. 8 ",59.73908449999999,30.6227177,"Октябрьская ул., 8, Санкт-Петербург, Ленинградская обл., Россия, 196655",Санкт-Петербург,,Ленинградская область,Октябрьская улица,8
165,10802,Теле-2,"г. Кронштадт, пр-т Ленина, д. 13.  Связь с Антоном",,10802_ESL-SES,На поддержке,"Санкт-Петербургский филиал ООО ""Т2 МОБАЙЛ""",10 802," г. Кронштадт, пр-т Ленина, д. 13.  Связь с Антоном",59.99761439999999,29.7656725,"пр. Ленина, 13, Санкт-Петербург, Россия, 197760",Санкт-Петербург,,Санкт-Петербург,проспект Ленина,13
166,36836,Теле-2,"г. Выборг, Ушакова 4 ",,36836_,Нет активной поддержки,"Санкт-Петербургский филиал ООО ""Т2 МОБАЙЛ""",36 836," г. Выборг, Ушакова 4 ",60.71066699999999,28.7487915,"ул. Ушакова, 4, Выборг, Ленинградская обл., Россия, 188800",Выборг,Выборгский район,Ленинградская область,улица Ушакова,4
167,129389,Теле-2,"Санкт-Петербург, улица Комсомола, 35",,129389_,Нет активной поддержки,"Санкт-Петербургский филиал ООО ""Т2 МОБАЙЛ""",129 389," Санкт-Петербург, улица Комсомола, 35",59.9563217,30.358412,"ул. Комсомола, 35, Санкт-Петербург, Россия, 195009",Санкт-Петербург,,Санкт-Петербург,улица Комсомола,35
168,137713,Теле-2,"г. Будённовск, ул. Октябрьская, д. 79 (ц. Рынок)",,137713_ESL-ZKong,На поддержке,"Ставропольский филиал ООО ""Т2 Мобайл""",137 713," г. Будённовск, ул. Октябрьская, д. 79 (ц. Рынок)",44.7822204,44.15636749999999,"Октябрьская ул., 79, Буденновск, Ставропольский край, Россия, 356800",Буденновск,город Буденновск,Ставропольский край,Октябрьская улица,79
169,142224,Теле-2,"г. Минеральные Воды, пр-т 22-го Партсъезда, д. 102 ТЦ Вершина",,142224_ESL-ZKong,На поддержке,"Ставропольский филиал ООО ""Т2 Мобайл""",142 224," г. Минеральные Воды, пр-т 22-го Партсъезда, д. 102 ТЦ Вершина",44.1934598,43.1306386,"пр. 22 Партсъезда, 102, Минеральные Воды, Ставропольский край, Россия, 357210",Минеральные Воды,город Минеральные Воды,Ставропольский край,проспект 22 Партсъезда,102
170,137361,Теле-2,"г. Пятигорск, пр-т Кирова, д. 65, ТЦ Галерея",,137361_ESL-ZKong,На поддержке,"Ставропольский филиал ООО ""Т2 Мобайл""",137 361," г. Пятигорск, пр-т Кирова, д. 65, ТЦ Галерея",44.0355735,43.0651967,"Кирова просп., 65, Пятигорск, Ставропольский край, Россия, 357502",Пятигорск,город Пятигорск,Ставропольский край,Кирова проспект,65
171,144357,Теле-2,"г. Пятигоск,  ул. Ессентукская, д. 31а,  ТЦ Вершина Плаза",,144357_ESL-ZKong,На поддержке,"Ставропольский филиал ООО ""Т2 Мобайл""",144 357," г. Пятигоск,  ул. Ессентукская, д. 31а,  ТЦ Вершина Плаза",44.0512101,43.0342651,"ул. Ессентукская, 31А, Пятигорск, Ставропольский край, Россия, 357538",Пятигорск,город Пятигорск,Ставропольский край,улица Ессентукская,31А
172,137618,Теле-2,"г. Ставрополь, ул.Дзержинского, д. 131, ЦУМ",,137618_ESL-ZKong,На поддержке,"Ставропольский филиал ООО ""Т2 Мобайл""",137 618," г. Ставрополь, ул.Дзержинского, д. 131, ЦУМ",45.0450892,41.9710178,"ул. Дзержинского, 131, Ставрополь, Ставропольский край, Россия, 355035",Ставрополь,город Ставрополь,Ставропольский край,улица Дзержинского,131
173,142788,Теле-2,"г. Ставрополь, пр-т Карла Маркса, д. 53 ТЦ Европейский",,142788_ESL-ZKong,На поддержке,"Ставропольский филиал ООО ""Т2 Мобайл""",142 788," г. Ставрополь, пр-т Карла Маркса, д. 53 ТЦ Европейский",45.0500839,41.9850861,"пр. Карла Маркса, 53, Ставрополь, Ставропольский край, Россия, 355008",Ставрополь,город Ставрополь,Ставропольский край,проспект Карла Маркса,53
174,139325,Теле-2,"г. Ставрополь, пр-т Карла Маркса, д. 98 (Цифровой пятак)",,139325_ESL-ZKong,На поддержке,"Ставропольский филиал ООО ""Т2 Мобайл""",139 325," г. Ставрополь, пр-т Карла Маркса, д. 98 (Цифровой пятак)",45.0462642,41.9741059,"пр. Карла Маркса, 98, Ставрополь, Ставропольский край, Россия, 355035",Ставрополь,город Ставрополь,Ставропольский край,проспект Карла Маркса,98
175,139768,Теле-2,"г. Ставрополь, ул. Доваторцев, д. 75А, ТЦ Космос",,139768_ESL-ZKong,На поддержке,"Ставропольский филиал ООО ""Т2 Мобайл""",139 768," г. Ставрополь, ул. Доваторцев, д. 75А, ТЦ Космос",44.9972489,41.922885,"ул. Доваторцев, 75А, Ставрополь, Ставропольский край, Россия, 355042",Ставрополь,город Ставрополь,Ставропольский край,улица Доваторцев,75А
176,142223,Теле-2,"г. Ставрополь, ул.Тухачевского, д. 16Б  Рынок",,142223_ESL-ZKong,На поддержке,"Ставропольский филиал ООО ""Т2 Мобайл""",142 223," г. Ставрополь, ул.Тухачевского, д. 16Б  Рынок",45.01329279999999,41.916898,"ул. Тухачевского, 16Б, Ставрополь, Ставропольский край, Россия, 355045",Ставрополь,город Ставрополь,Ставропольский край,улица Тухачевского,16Б
177,116172,Теле-2,"г. Геленджик, ул. Ленина, д. 1",,116172_ESL-SES,Нет активной поддержки,Краснодарский филиал Т2 МОБАЙЛ ООО,116 172," г. Геленджик, ул. Ленина, д. 1",44.56162579999999,38.0771748,"ул. Ленина, 1, Геленджик, Краснодарский край, Россия, 353460",Геленджик,город Геленджик,Краснодарский край,улица Ленина,1
178,820521,Теле-2,"г. Краснодар, Майкоп, ул. Пролетарская, д. 205",,820521_ESL-ZKong,Нет активной поддержки,Краснодарский филиал Т2 МОБАЙЛ ООО,820 521," г. Краснодар, Майкоп, ул. Пролетарская, д. 205",44.6076175,40.1046934,"Майкоп, Республика Адыгея, Россия",Майкоп,город Майкоп,Республика Адыгея,,
179,124127,Теле-2,"г. Краснодар, ул. Покрышкина, д. 34",,124127_ESL-ZKong,Нет активной поддержки,Краснодарский филиал Т2 МОБАЙЛ ООО,124 127," г. Краснодар, ул. Покрышкина, д. 34",45.1017958,38.980718,"ул. Александра Покрышкина, 34, Краснодар, Краснодарский край, Россия, 350019",Краснодар,город Краснодар,Краснодарский край,улица Александра Покрышкина,34
180,995810,Теле-2,"г. Краснодар, ул. Головатова, д. 313",,995810_ESL-SES,Архивный,Краснодарский филиал Т2 МОБАЙЛ ООО,995 810," г. Краснодар, ул. Головатова, д. 313",45.0393437,38.9744124,"ТЦ Галерея, ул. Володи Головатого, 313, Краснодар, Краснодарский край, Россия, 350000",Краснодар,город Краснодар,Краснодарский край,улица Володи Головатого,313
181,125340,Теле-2,"аул Новая Адыгея, Тургеневское ш., д. 27",,125340_ESL-ZKong,На поддержке,Краснодарский филиал Т2 МОБАЙЛ ООО,125 340," аул Новая Адыгея, Тургеневское ш., д. 27",45.0124761,38.9298789,"Тургеневское ш., 27, Новая Адыгея, Краснодарский край, Россия, 385112",Новая Адыгея,Тахтамукайский район,Краснодарский край,Тургеневское шоссе,27
182,1000028,Теле-2,"г. Усть-Лабинск, ул. Ободовского, д. 27",,1000028_ESL-SES,Нет активной поддержки,Краснодарский филиал Т2 МОБАЙЛ ООО,1 000 028," г. Усть-Лабинск, ул. Ободовского, д. 27",45.2145291,39.6805428,"ул. Ободовского, 27, Усть-Лабинск, Краснодарский край, Россия, 352330",Усть-Лабинск,Усть-Лабинский район,Краснодарский край,улица Ободовского,27
183,1049427,Теле-2,"г. Аксай, Аксайский пр-т, д. 23, ТРК «МЕГА» ",,1049427_ESL-SES,На поддержке,Ростовский филиал Т2 МОБАЙЛ ООО,1 049 427," г. Аксай, Аксайский пр-т, д. 23, ТРК «МЕГА» ",47.290631,39.8465235,"Аксайский пр., 23, Аксай, Ростовская обл., Россия, 346720",Аксай,Аксайский район,Ростовская область,Аксайский проспект,23
184,1001794,Теле-2,"г. Батайск, ул. Кирова, д. 8",,1001794_ESL-SES,Нет активной поддержки,Ростовский филиал Т2 МОБАЙЛ ООО,1 001 794," г. Батайск, ул. Кирова, д. 8",47.1388429,39.7527485,"ул. Кирова, 8а, Батайск, Ростовская обл., Россия, 346880",Батайск,город Батайск,Ростовская область,улица Кирова,8а
185,67529,Теле-2,"г. Новошахстинск, ул. Базарная, д. 29",,67529_ESL-SES,На поддержке,Ростовский филиал Т2 МОБАЙЛ ООО,67 529," г. Новошахстинск, ул. Базарная, д. 29",47.7539794,39.9330732,"ул. Базарная, 29, Новошахтинск, Ростовская обл., Россия, 346918",Новошахтинск,город Новошахтинск,Ростовская область,улица Базарная,29
186,981941,Теле-2,"г. Ростов-на-Дону, ул. Зорге, д. 33",,981941_ESL-ZKong,Нет активной поддержки,Ростовский филиал Т2 МОБАЙЛ ООО,981 941," г. Ростов-на-Дону, ул. Зорге, д. 33",47.2293069,39.627748,"ул. Зорге, 33, Ростов-на-Дону, Ростовская обл., Россия, 344015",Ростов-на-Дону,город Ростов-на-Дону,Ростовская область,улица Зорге,33
187,1001462,Теле-2,"г. Ростов-на-Дону, пр-т Космонавтов, д. 2/2",,1001462_ESL-SES,Нет активной поддержки,Ростовский филиал Т2 МОБАЙЛ ООО,1 001 462," г. Ростов-на-Дону, пр-т Космонавтов, д. 2/2",47.2805294,39.7181722,"пр. Космонавтов, 2/2, Ростов-на-Дону, Ростовская обл., Россия, 344092",Ростов-на-Дону,город Ростов-на-Дону,Ростовская область,проспект Космонавтов,2/2
188,65121,Теле-2,"г. Ростов-на-Дону, ул. Б. Садовая, д. 43",,65121_ESL-ZKong,Нет активной поддержки,Ростовский филиал Т2 МОБАЙЛ ООО,65 121," г. Ростов-на-Дону, ул. Б. Садовая, д. 43",47.2205416,39.7083638,"Большая Садовая ул., 43, Ростов-на-Дону, Ростовская обл., Россия, 344002",Ростов-на-Дону,город Ростов-на-Дону,Ростовская область,Большая Садовая улица,43
189,1047269,Теле-2,"г. Ростов-на-Дону, ул Малиновского, д. 25",,1047269_ESL-SES,На поддержке,Ростовский филиал Т2 МОБАЙЛ ООО,1 047 269," г. Ростов-на-Дону, ул Малиновского, д. 25",47.2306354,39.6101758,"ТК ""Золотой Вавилон, ул. Малиновского, 25, Ростов-на-Дону, Ростовская обл., Россия, 344015",Ростов-на-Дону,город Ростов-на-Дону,Ростовская область,улица Малиновского,25
190,132952,Теле-2,"г. Ростов-на-Дону, пр-т Косомнавтов, д. 19а/28Ж",,132952_ESL-ZKong,На поддержке,Ростовский филиал Т2 МОБАЙЛ ООО,132 952," г. Ростов-на-Дону, пр-т Косомнавтов, д. 19а/28Ж",47.2894714,39.7135422,"пр. Космонавтов, 19А/28Ж, Ростов-на-Дону, Ростовская обл., Россия, 344092",Ростов-на-Дону,город Ростов-на-Дону,Ростовская область,проспект Космонавтов,19А/28Ж
191,59052,Теле-2,"г. Таганрог, Спартаковский пер., д. 3",,59052_ESL-SES,На поддержке,Ростовский филиал Т2 МОБАЙЛ ООО,59 052," г. Таганрог, Спартаковский пер., д. 3",47.2170846,38.9235446,"Спартаковский пер., 3, Таганрог, Ростовская обл., Россия, 347900",Таганрог,город Таганрог,Ростовская область,Спартаковский переулок,3
192,784682,Теле-2,"г. Дмитров, ул. Загорская, д22 ",,784682_ESL-SES,На поддержке,"Московский филиал ООО ""2 МОБАЙЛ""",784 682," г. Дмитров, ул. Загорская, д22 ",56.3427444,37.515669,"ул. Загорская, 22, Дмитров, Московская обл., Россия, 141000",Дмитров,Дмитровский муниципальный округ,Московская область,улица Загорская,22
193,782274,Теле-2,"МО, г. Красногорск. Международная 12 ТЦ Вегас ",,782274_ESL-SES,На поддержке,"Московский филиал ООО ""2 МОБАЙЛ""",782 274," МО, г. Красногорск. Международная 12 ТЦ Вегас ",55.8197935,37.3882241,"Международная ул., 12, Красногорск, Московская обл., Россия, 143407",Красногорск,Городской округ Красногорск,Московская область,Международная улица,12
194,784671,Теле-2,МО_Зеленоград_ТЦ Иридиум_ТЕЛЕ2+Xiaomi -,,784671_ESL-SES,Нет активной поддержки,"Московский филиал ООО ""2 МОБАЙЛ""",784 671, МО_Зеленоград_ТЦ Иридиум_ТЕЛЕ2+Xiaomi -,55.982678,37.174811,"площадь Крюковская 1 ТЦ Peoples Park, Москва, Россия, 124575",Москва,Москва,Москва,,
195,137745,Теле-2,"МО, г. Красногорск, 66км МКАД, д.1",,137745_ESL-ZKong,Нет активной поддержки,"Московский филиал ООО ""2 МОБАЙЛ""",137 745," МО, г. Красногорск, 66км МКАД, д.1",55.8155648,37.387452,"МКАД 66 км, 1, Москва, Россия, 121471",Москва,Городской округ Красногорск,Москва,МКАД 66 километр,1
196,821532,Теле-2,МО_Люберцы_Октябрьский просп.366_Орбита,,821532_ESL-ZKong,Нет активной поддержки,"Московский филиал ООО ""2 МОБАЙЛ""",821 532, МО_Люберцы_Октябрьский просп.366_Орбита,55.6631235,37.9105504,"ул. Строителей, 366, Люберцы, Московская обл., Россия, 140006",Люберцы,Городской округ Люберцы,Московская область,улица Строителей,366
197,782279,Теле-2,"МО, г. Мытищи, ул. Мира, стр. 51",,782279_ESL-ZKong,Нет активной поддержки,"Московский филиал ООО ""2 МОБАЙЛ""",782 279," МО, г. Мытищи, ул. Мира, стр. 51",55.9193465,37.7079757,"ул. Мира, 51, Мытищи, Московская обл., Россия, 141021",Мытищи,Городской округ Мытищи,Московская область,улица Мира,51
198,1063869,Теле-2,"Московская область, город Орехово-Зуево, улица Ленина, дом 78, пом. 1,9",,1063869_ESL-SES,На поддержке,"Московский филиал ООО ""2 МОБАЙЛ""",1 063 869," Московская область, город Орехово-Зуево, улица Ленина, дом 78, пом. 1,9",55.8062899,38.99008449999999,"ул. Ленина, 78, Орехово-Зуево, Московская обл., Россия, 142600",Орехово-Зуево,город Орехово-Зуево,Московская область,улица Ленина,78
199,127881,Теле-2,"МО, Рамен.г.о,д.Островцы,ул. Подмосковная д.37, ТРЦ Мой Молл",,127881_ESL-ZKong,На поддержке,"Московский филиал ООО ""2 МОБАЙЛ""",127 881," МО, Рамен.г.о,д.Островцы,ул. Подмосковная д.37, ТРЦ Мой Молл",55.60004319999999,37.9825583,"Подмосковная ул., Островцы, Московская обл., Россия, 140125",Островцы,Городской округ Люберцы,Московская область,Подмосковная улица,
200,1049428,Теле-2,"МО, г. Серпухов, ул. Ворошилова, д. 214_ТЦ Элефант",,1049428_ESL-SES,Нет активной поддержки,"Московский филиал ООО ""2 МОБАЙЛ""",1 049 428," МО, г. Серпухов, ул. Ворошилова, д. 214_ТЦ Элефант",54.935275,37.450483,"ул. Ворошилова, 214, Серпухов, Московская обл., Россия, 142214",Серпухов,Городской округ Серпухов,Московская область,улица Ворошилова,214
201,782305,Теле-2,"Москва. Новокосинская, 31",,782305_ESL-SES,На поддержке,"Московский филиал ООО ""2 МОБАЙЛ""",782 305," Москва. Новокосинская, 31",55.7384518,37.8622806,"ул. Новокосинская, 31, Москва, Россия, 111673",Москва,Москва,Москва,улица Новокосинская,31
202,932484,Теле-2,"Москва. Сходненская, 56",,932484_ESL-SES,На поддержке,"Московский филиал ООО ""2 МОБАЙЛ""",932 484," Москва. Сходненская, 56",55.8503501,37.4445964,"Сходненская ул., 56, Москва, Россия, 125364",Москва,Москва,Москва,Сходненская улица,56
203,844652,Теле-2,"Москва. Красная пресня, 44",,844652_ESL-SES,Нет активной поддержки,"Московский филиал ООО ""2 МОБАЙЛ""",844 652," Москва. Красная пресня, 44",55.7628285,37.565036,"ул. Красная Пресня, 44 строение 1, Москва, Россия, 123022",Москва,Москва,Москва,улица Красная Пресня,44 строение 1
204,848698,Теле-2,"Москва, Веневская, ТЦ Витте Молл -",,848698_ESL-SES,На поддержке,"Московский филиал ООО ""2 МОБАЙЛ""",848 698," Москва, Веневская, ТЦ Витте Молл -",55.547132,37.542976,"ТЦ ""Витте Молл, Веневская ул., 6, Москва, Россия, 117042",Москва,Москва,Москва,Веневская улица,6
205,1000173,Теле-2,Москва. Декабристов 12,,1000173_ESL-SES,На поддержке,"Московский филиал ООО ""2 МОБАЙЛ""",1 000 173, Москва. Декабристов 12,55.8628023,37.60159609999999,"Декабристов ул., 12, Москва, Россия, 127562",Москва,Москва,Москва,Декабристов улица,12
206,1000730,Теле-2,"Москва, ТЦ Форт, Новоясеневский 11",,1000730_ESL-SES,Нет активной поддержки,"Московский филиал ООО ""2 МОБАЙЛ""",1 000 730," Москва, ТЦ Форт, Новоясеневский 11",55.6067589,37.5362144,"Новоясеневский пр., 11, Москва, Россия, 117588",Москва,Москва,Москва,Новоясеневский проспект,11
207,1014809,Теле-2,"Москва, ТЦ Водный, Головинское ш.5",,1014809_ESL-SES,Нет активной поддержки,"Московский филиал ООО ""2 МОБАЙЛ""",1 014 809," Москва, ТЦ Водный, Головинское ш.5",55.8402046,37.4916366,"Головинское ш., 5, Москва, Россия, 125212",Москва,Москва,Москва,Головинское шоссе,5
208,116647,Теле-2,"г. Москва, Зеленоград, корп. 1446, ТЦ Столица",,116647_ESL-SES,Нет активной поддержки,"Московский филиал ООО ""2 МОБАЙЛ""",116 647," г. Москва, Зеленоград, корп. 1446, ТЦ Столица",55.9644402,37.1870516,"2309, Зеленоград, Москва, Россия, 124527",Зеленоград,Москва,Москва,,
209,1047794,Теле-2,"г. Москва, ул. Кустанайская, д.6, ТЦ Столица",,1047794_ESL-SES,Нет активной поддержки,"Московский филиал ООО ""2 МОБАЙЛ""",1 047 794," г. Москва, ул. Кустанайская, д.6, ТЦ Столица",55.6196189,37.75219990000001,"Кустанайская ул., 6, Москва, Россия, 115580",Москва,Москва,Москва,Кустанайская улица,6
210,1021701,Теле-2,"г. Москва, Локомотивный пр-д, д. 4, ТЦ Парус",,1021701_ESL-SES,Нет активной поддержки,"Московский филиал ООО ""2 МОБАЙЛ""",1 021 701," г. Москва, Локомотивный пр-д, д. 4, ТЦ Парус",55.8379461,37.5766969,"Локомотивный пр., 4, Москва, Россия, 127238",Москва,Москва,Москва,Локомотивный проезд,4
211,1043638,Теле-2,"г. Москва, р-н Щукино, ул. Щукинская, д. 42 ТРК
  ""Щука"" ",,1043638_ESL-SES,Нет активной поддержки,"Московский филиал ООО ""2 МОБАЙЛ""",1 043 638," г. Москва, р-н Щукино, ул. Щукинская, д. 42 ТРК
  ""Щука"" ",55.80948489999999,37.4646113,"Щукинская ул., 42, Москва, Россия, 123182",Москва,Москва,Москва,Щукинская улица,42
212,775840,Теле-2,"г. Москва Пражская ул. Кировоградская, д.13А ТРЦ Columbus",,775840_ESL-SES,Нет активной поддержки,"Московский филиал ООО ""2 МОБАЙЛ""",775 840," г. Москва Пражская ул. Кировоградская, д.13А ТРЦ Columbus",55.612154,37.607059,"Кировоградская ул., 13А, Москва, Россия, 117519",Москва,Москва,Москва,Кировоградская улица,13А
213,1049426,Теле-2,"г. Москва, Нахимовский пр-кт, д. 40",,1049426_ESL-SES,Нет активной поддержки,"Московский филиал ООО ""2 МОБАЙЛ""",1 049 426," г. Москва, Нахимовский пр-кт, д. 40",55.677377,37.5658045,"Нахимовский пр., 40, Москва, Россия, 117218",Москва,Москва,Москва,Нахимовский проспект,40
214,1055072,Теле-2,"г. Москва, ул. 2-я Владимирская, 36",,1055072_ESL-SES,Нет активной поддержки,"Московский филиал ООО ""2 МОБАЙЛ""",1 055 072," г. Москва, ул. 2-я Владимирская, 36",55.7510273,37.7835252,"2-я Владимирская ул., 36/21, Москва, Россия, 111401",Москва,Москва,Москва,2-я Владимирская улица,36/21
215,1004153,Теле-2,"г. Москва, ш. Щелковское, 75",,1004153_ESL-SES,Нет активной поддержки,"Московский филиал ООО ""2 МОБАЙЛ""",1 004 153," г. Москва, ш. Щелковское, 75",55.81136369999999,37.8012398,"Щёлковское ш., 75, Москва, Россия, 107207",Москва,Москва,Москва,Щёлковское шоссе,75
216,1049425,Теле-2,"г. Москва Бабушкинская пр-д Дежнёва, 23а Эгомолл",,1049425_ESL-SES,Нет активной поддержки,"Московский филиал ООО ""2 МОБАЙЛ""",1 049 425," г. Москва Бабушкинская пр-д Дежнёва, 23а Эгомолл",55.8701081,37.6384078,"Дежнева пр., 23 А кор.2, Москва, Россия, 127081",Москва,Москва,Москва,Дежнева проезд,23 А кор.2
217,1056785,Теле-2,"г. Москва, Дмитровское шоссе, д.89, ТЦ XL Дмитровка",,1056785_ESL-SES,Нет активной поддержки,"Московский филиал ООО ""2 МОБАЙЛ""",1 056 785," г. Москва, Дмитровское шоссе, д.89, ТЦ XL Дмитровка",55.8637141,37.544994,"Дмитровское ш., 89, Москва, Россия, 127486",Москва,Москва,Москва,Дмитровское шоссе,89
218,1056466,Теле-2,"г. Москва, ул. Бутырская 2/18",,1056466_ESL-SES,На поддержке,"Московский филиал ООО ""2 МОБАЙЛ""",1 056 466," г. Москва, ул. Бутырская 2/18",55.794033,37.586855,"Бутырская ул., 2/18, Москва, Россия, 127015",Москва,Москва,Москва,Бутырская улица,2/18
219,993810,Теле-2,"г. Москва, Чертановская 20/22, ТЦ Гравитация",,993810_ESL-SES,На поддержке,"Московский филиал ООО ""2 МОБАЙЛ""",993 810," г. Москва, Чертановская 20/22, ТЦ Гравитация",55.624451,37.5938443,"Чертановская ул., 20 сооружение 3, Москва, Россия, 117525",Москва,Москва,Москва,Чертановская улица,20 сооружение 3
220,1047268,Теле-2,"г. Москва, ул. Б. Черемушкинская 1, ТЦ ""Рио""",,1047268_ESL-SES,Нет активной поддержки,"Московский филиал ООО ""2 МОБАЙЛ""",1 047 268," г. Москва, ул. Б. Черемушкинская 1, ТЦ ""Рио""",55.6895981,37.6021936,"Большая Черемушкинская ул., 1, Москва, Россия, 117447",Москва,Москва,Москва,Большая Черемушкинская улица,1
221,1024731,Теле-2,"г. Москва, ул. Каховка, д.29А ТЦ Прайм Плаза",,1024731_ESL-SES,Нет активной поддержки,"Московский филиал ООО ""2 МОБАЙЛ""",1 024 731," г. Москва, ул. Каховка, д.29А ТЦ Прайм Плаза",55.656356,37.569596,"ул. Каховка, 29А, Москва, Россия, 117461",Москва,Москва,Москва,улица Каховка,29А
222,1083914,Теле-2,"г. Москва, Багратионовский проезд д.5 ТЦ Филион -",,1083914_ESL-SES,Нет активной поддержки,"Московский филиал ООО ""2 МОБАЙЛ""",1 083 914," г. Москва, Багратионовский проезд д.5 ТЦ Филион -",55.744208,37.5080612,"БaГРАТИОНОВСКИЙ пр., 5, Москва, Россия, 121087",Москва,Москва,Москва,БaГРАТИОНОВСКИЙ ПРОЕЗД,5
223,1086736,Теле-2,"г. Москва, Новослободская, д. 10",,1086736_ESL-SES,Нет активной поддержки,"Московский филиал ООО ""2 МОБАЙЛ""",1 086 736," г. Москва, Новослободская, д. 10",55.7804842,37.6002006,"строение 3, Новослободская ул., 10, Москва, Россия, 127055",Москва,Москва,Москва,Новослободская улица,10
224,818289,Теле-2,"г. Москва, пр. Свободный, 33А",,818289_ESL-SES,Нет активной поддержки,"Московский филиал ООО ""2 МОБАЙЛ""",818 289," г. Москва, пр. Свободный, 33А",55.752195,37.8185271,"Свободный пр., 33 А строение 4, Москва, Россия, 111558",Москва,Москва,Москва,Свободный проспект,33 А строение 4
225,1111667,Теле-2,"г Москва, ул. Мира 114 стр2",,1111667_ESL-SES,На поддержке,"Московский филиал ООО ""2 МОБАЙЛ""",1 111 667," г Москва, ул. Мира 114 стр2",55.6604149,37.9111345,"ул. Мира, 114, Люберцы, Московская обл., Россия, 140006",Люберцы,Городской округ Люберцы,Московская область,улица Мира,114
226,137619,Теле-2,"г. Москва, Ходынский б-р, д. 4 ТЦ “Авиапарк”",,137619_ESL-SES,На поддержке,"Московский филиал ООО ""2 МОБАЙЛ""",137 619," г. Москва, Ходынский б-р, д. 4 ТЦ “Авиапарк”",55.7902891,37.5308876,"Ходынский б-р, 4, Москва, Россия, 125167",Москва,Москва,Москва,Ходынский бульвар,4
227,954006,Теле-2,"г. Москва, пл. Киевского вокзала, д. 2, ТЦ «Европейский»",,954006_ESL-ZKong,Нет активной поддержки,"Московский филиал ООО ""2 МОБАЙЛ""",954 006," г. Москва, пл. Киевского вокзала, д. 2, ТЦ «Европейский»",55.7446675,37.5658937,"пл. Киевского Вокзала, 2, Москва, Россия, 121059",Москва,Москва,Москва,площадь Киевского Вокзала,2
228,104114,Теле-2,"г. Москва, Пролетарский проспект д. 30, ТЦ «Ашан»",,104114_ESL-ZKong,Нет активной поддержки,"Московский филиал ООО ""2 МОБАЙЛ""",104 114," г. Москва, Пролетарский проспект д. 30, ТЦ «Ашан»",55.6306337,37.6590868,"Пролетарский пр., 30, Москва, Россия, 115516",Москва,Москва,Москва,Пролетарский проспект,30
229,782295,Теле-2,"г. Москва, ул. Профсоюзная, д. 129А, ТЦ ""Принц Плаз""",,782295_ESL-ZKong,Нет активной поддержки,"Московский филиал ООО ""2 МОБАЙЛ""",782 295," г. Москва, ул. Профсоюзная, д. 129А, ТЦ ""Принц Плаз""",55.6187457,37.5068024,"ул. Профсоюзная, 129А, Москва, Россия, 117321",Москва,Москва,Москва,улица Профсоюзная,129А
230,774970,Теле-2,"г. Москва, ул. Фестивальная 2Б, ТРК Речной",,774970_ESL-ZKong,Нет активной поддержки,"Московский филиал ООО ""2 МОБАЙЛ""",774 970," г. Москва, ул. Фестивальная 2Б, ТРК Речной",55.8547688,37.47777809999999,"Фестивальная ул., 2 Б, Москва, Россия, 125565",Москва,Москва,Москва,Фестивальная улица,2 Б
231,116645,Теле-2,"г. Москва, Солнцевский пр-т, 21, ТЦ Столица",,116645_ESL-ZKong,Нет активной поддержки,"Московский филиал ООО ""2 МОБАЙЛ""",116 645," г. Москва, Солнцевский пр-т, 21, ТЦ Столица",55.647048,37.4116481,"Солнцевский пр., 21, Москва, Россия, 119620",Москва,Москва,Москва,Солнцевский проспект,21
232,118951,Теле-2,"г. Москва, ул Авиаторов 3А, ТЦ Небо",,118951_ESL-ZKong,Нет активной поддержки,"Московский филиал ООО ""2 МОБАЙЛ""",118 951," г. Москва, ул Авиаторов 3А, ТЦ Небо",55.6435348,37.3980356,"ул. Авиаторов, 3А, Москва, Россия, 119619",Москва,Москва,Москва,улица Авиаторов,3А
233,925353,Теле-2,"г. Москва, ул. 7-ая Кожуховская, д.9, ТЦ Мозайка",,925353_ESL-ZKong,Нет активной поддержки,"Московский филиал ООО ""2 МОБАЙЛ""",925 353," г. Москва, ул. 7-ая Кожуховская, д.9, ТЦ Мозайка",55.7105556,37.6727778,"7-я Кожуховская ул., 9, Москва, Россия, 115193",Москва,Москва,Москва,7-я Кожуховская улица,9
234,788160,Теле-2,"г. Москва, Каширское ш., д. 26",,788160_ESL-ZKong,Нет активной поддержки,"Московский филиал ООО ""2 МОБАЙЛ""",788 160," г. Москва, Каширское ш., д. 26",55.6536266,37.6469331,"Каширское ш., 26, Москва, Россия, 115522",Москва,Москва,Москва,Каширское шоссе,26
235,786259,Теле-2,"г. Москва, Люблинская ул, д. 169к2",,786259_ESL-ZKong,Нет активной поддержки,"Московский филиал ООО ""2 МОБАЙЛ""",786 259," г. Москва, Люблинская ул, д. 169к2",55.64912,37.7448082,"Люблинская ул., 169, корпус 2, Москва, Россия, 109652",Москва,Москва,Москва,Люблинская улица,"169, корпус 2"
236,124126,Теле-2,"г. Москва, ул. Дыбенко, 71 (Ховрино, 3)",,124126_ESL-ZKong,Нет активной поддержки,"Московский филиал ООО ""2 МОБАЙЛ""",124 126," г. Москва, ул. Дыбенко, 71 (Ховрино, 3)",55.8783205,37.4819715,"ул. Дыбенко, 71, Москва, Россия, 125475",Москва,Москва,Москва,улица Дыбенко,71
237,775853,Теле-2,"г. Москва, ул. Борисовские Пруды 26 к2_ТЦ Браво",,775853_ESL-ZKong,Нет активной поддержки,"Московский филиал ООО ""2 МОБАЙЛ""",775 853," г. Москва, ул. Борисовские Пруды 26 к2_ТЦ Браво",55.63901389999999,37.7590228,"ул. Борисовские Пруды, 26, к. 2, Москва, Россия, 115612",Москва,Москва,Москва,улица Борисовские Пруды,"26, к. 2"
238,122832,Теле-2,"г. Москва, Ореховый б-р, 15_ТЦ Галерея Водолей",,122832_ESL-ZKong,Нет активной поддержки,"Московский филиал ООО ""2 МОБАЙЛ""",122 832," г. Москва, Ореховый б-р, 15_ТЦ Галерея Водолей",55.612766,37.720069,"Ореховый б-р, 15, Москва, Россия, 115563",Москва,Москва,Москва,Ореховый бульвар,15
239,125378,Теле-2,"г. Москва, Измайловское ш.69Д_ТЦ Альбатрос",,125378_ESL-ZKong,Нет активной поддержки,"Московский филиал ООО ""2 МОБАЙЛ""",125 378," г. Москва, Измайловское ш.69Д_ТЦ Альбатрос",55.7885545,37.750376,"Измайловское ш., 69Г, Москва, Россия, 105187",Москва,Москва,Москва,Измайловское шоссе,69Г
240,126928,Теле-2,"г. Москва, ул. Ярцевская, д.25А ТЦ Трамплин",,126928_ESL-ZKong,Нет активной поддержки,"Московский филиал ООО ""2 МОБАЙЛ""",126 928," г. Москва, ул. Ярцевская, д.25А ТЦ Трамплин",55.7411123,37.4153105,"Москва, Ярцевская ул., 25а, Трамплин, Москва, Россия, 121552",Трамплин,Москва,Москва,Ярцевская улица,25а
241,126236,Теле-2,"г. Москва, Ореховый б-р, д. 22_ТЦ Облака",,126236_ESL-ZKong,Нет активной поддержки,"Московский филиал ООО ""2 МОБАЙЛ""",126 236," г. Москва, Ореховый б-р, д. 22_ТЦ Облака",55.612147,37.732588,"Ореховый б-р, д.22 А, Москва, Россия, 115573",Москва,Москва,Москва,Ореховый бульвар,д.22 А
242,127879,Теле-2,"г. Москва, ш. Варшавское, д.152А, ТЦ Сомбреро",,127879_ESL-ZKong,Нет активной поддержки,"Московский филиал ООО ""2 МОБАЙЛ""",127 879," г. Москва, ш. Варшавское, д.152А, ТЦ Сомбреро",55.59463479999999,37.5996443,"ТЦ ""Сомбреро"", Варшавское ш., 152к16с3, Москва, Россия, 117405",Москва,Москва,Москва,Варшавское шоссе,152к16с3
243,125750,Теле-2,"г. Москва, Проспект Андропова д.8 ТЦ Мегаполис",,125750_ESL-ZKong,Нет активной поддержки,"Московский филиал ООО ""2 МОБАЙЛ""",125 750," г. Москва, Проспект Андропова д.8 ТЦ Мегаполис",55.69609,37.665654,"Андропова пр-т, 8, Москва, Россия, 115432",Москва,Москва,Москва,проспект Андропова,8
244,126234,Теле-2,"г. Москва, ул. Красного Маяка, 2Б",,126234_ESL-ZKong,Нет активной поддержки,"Московский филиал ООО ""2 МОБАЙЛ""",126 234," г. Москва, ул. Красного Маяка, 2Б",55.6112522,37.6043851,"ул. Красного Маяка, 2Б, Москва, Россия, 117519",Москва,Москва,Москва,улица Красного Маяка,2Б
245,126931,Теле-2,"г. Москва, пр-кт Мира, 40, ТЦ Гарденмир",,126931_ESL-ZKong,Нет активной поддержки,"Московский филиал ООО ""2 МОБАЙЛ""",126 931," г. Москва, пр-кт Мира, 40, ТЦ Гарденмир",55.780227,37.6335184,"пр-т Мира, 40, Москва, Россия, 129090",Москва,Москва,Москва,проспект Мира,40
246,128990,Теле-2,г. Москва_мкрн_Северное_Чертаново_1А_ТЦ Авентура_TOS,,128990_ESL-ZKong,Нет активной поддержки,"Московский филиал ООО ""2 МОБАЙЛ""",128 990, г. Москва_мкрн_Северное_Чертаново_1А_ТЦ Авентура_TOS,55.6373798,37.6004247,"Северное Чертаново ул., 1, Москва, Россия, 117648",Москва,Москва,Москва,Северное Чертаново улица,1
247,945252,Теле-2,"г. Москва, ш. Киевское, д.23-й км, 1 ТЦ Солярис",,945252_ESL-ZKong,На поддержке,"Московский филиал ООО ""2 МОБАЙЛ""",945 252," г. Москва, ш. Киевское, д.23-й км, 1 ТЦ Солярис",55.6215671,37.4291806,"2-я Новая улица дом 23, к, 2-я Новая ул., 23, Саларьево, Москва, Россия, 119297",Саларьево,Москва,Москва,2-я Новая улица,23
248,131359,Теле-2,"г. Москва, Большая Семёновская 20",,131359_ESL-ZKong,На поддержке,"Московский филиал ООО ""2 МОБАЙЛ""",131 359," г. Москва, Большая Семёновская 20",55.7820869,37.7052188,"Большая Семеновская ул., 20, Москва, Россия, 107023",Москва,Москва,Москва,Большая Семеновская улица,20
249,123441,Теле-2,"г. Москва, ул. 6-я Нововатутинская, д.2",,123441_ESL-ZKong,На поддержке,"Московский филиал ООО ""2 МОБАЙЛ""",123 441," г. Москва, ул. 6-я Нововатутинская, д.2",55.513225,37.35971,"ул. 6-я Нововатутинская, Москва, Россия, 142793",Москва,Москва,Москва,,
250,985575,Теле-2,"г. Москва, Аминьевское шоссе 6, ТЦ Квартал Вест",,985575_ESL-ZKong,На поддержке,"Московский филиал ООО ""2 МОБАЙЛ""",985 575," г. Москва, Аминьевское шоссе 6, ТЦ Квартал Вест",55.70704,37.457037,"Аминьевское ш., 6, Москва, Россия, 119530",Москва,Москва,Москва,Аминьевское шоссе,6
251,135368,Теле-2,"г. Москва, ул. Новый Арбат, 3с1",,135368_ESL-ZKong,На поддержке,"Московский филиал ООО ""2 МОБАЙЛ""",135 368," г. Москва, ул. Новый Арбат, 3с1",55.752662,37.598511,"Новый Арбат ул., 3 строение 1, Москва, Россия, 119019",Москва,Москва,Москва,Новый Арбат улица,3 строение 1
252,983698,Теле-2,"г. Москва, ул. Автозаводская, д. 18, ТЦ Ривьера",,983698_ESL-ZKong,На поддержке,"Московский филиал ООО ""2 МОБАЙЛ""",983 698," г. Москва, ул. Автозаводская, д. 18, ТЦ Ривьера",55.7050642,37.6407832,"Автозаводская ул., 18, Москва, Россия, 115280",Москва,Москва,Москва,Автозаводская улица,18
253,130077,Теле-2,"г. Москва, Павелецкая пл., д. 3 ТЦ Павелецкая плаза",,130077_ESL-ZKong,На поддержке,"Московский филиал ООО ""2 МОБАЙЛ""",130 077," г. Москва, Павелецкая пл., д. 3 ТЦ Павелецкая плаза",55.73113069999999,37.6398797,"Москва, Россия, 115054",Москва,Москва,Москва,,
254,132819,Теле-2,"г. Москва, Земляной Вал, 29",,132819_ESL-ZKong,На поддержке,"Московский филиал ООО ""2 МОБАЙЛ""",132 819," г. Москва, Земляной Вал, 29",55.75973750000001,37.6603036,"ул. Земляной Вал, 29, Москва, Россия, 105064",Москва,Москва,Москва,улица Земляной Вал,29
255,124354,Теле-2,"г. Москва, Ботанический сад ул. Леонова 18",,124354_ESL-ZKong,На поддержке,"Московский филиал ООО ""2 МОБАЙЛ""",124 354," г. Москва, Ботанический сад ул. Леонова 18",55.844678,37.6391156,"ул. 1-я Леонова, 18, Москва, Россия, 129226",Москва,Москва,Москва,улица 1-я Леонова,18
256,1001160,Теле-2,"Московский, Никитина 2а",,1001160_ESL-SES,Нет активной поддержки,"Московский филиал ООО ""2 МОБАЙЛ""",1 001 160," Московский, Никитина 2а",55.60507070000001,37.357216,"ул. Никитина, 2, Москва, Россия, 108811",Москва,Москва,Москва,улица Никитина,2
257,949098,Теле-2,Москва\_Румянцево\_Киевское шоссе\_22й км\_д.6\_стр\_1\_БЦ Comcity,,949098_ESL-ZKong,На поддержке,"Московский филиал ООО ""2 МОБАЙЛ""",949 098, Москва\_Румянцево\_Киевское шоссе\_22й км\_д.6\_стр\_1\_БЦ Comcity,55.6340252,37.4318049,"Киевское ш., 6, строение 1, Москва, Россия, 119620",Москва,Москва,Москва,Киевское шоссе,"6, строение 1"
258,782248,Теле-2,"г. Мытищи, Шараповский проезд д.2 ТЦ Красный Кит",,782248_ESL-SES,Нет активной поддержки,"Московский филиал ООО ""2 МОБАЙЛ""",782 248," г. Мытищи, Шараповский проезд д.2 ТЦ Красный Кит",55.9165696,37.7576084,"Шараповский пр-д, 2, Мытищи, Московская обл., Россия, 141006",Мытищи,Городской округ Мытищи,Московская область,Шараповский проезд,2
259,1085104,Теле-2,"г. Одинцово, Маршала Неделина, 6",,1085104_ESL-SES,Нет активной поддержки,"Московский филиал ООО ""2 МОБАЙЛ""",1 085 104," г. Одинцово, Маршала Неделина, 6",55.6785671,37.2680636,"ул. Маршала Неделина, 6, Одинцово, Московская обл., Россия, 143003",Одинцово,Одинцовский городской округ,Московская область,улица Маршала Неделина,6
260,1069135,Теле-2,"Реутов, ул. Октября 10",,1069135_ESL-SES,Нет активной поддержки,"Московский филиал ООО ""2 МОБАЙЛ""",1 069 135," Реутов, ул. Октября 10",55.7517954,37.8586947,"ул. Октября, 10, Реутов, Московская обл., Россия, 143965",Реутов,Городской округ Реутов,Московская область,улица Октября,10
261,1039614,Теле-2,"г. Химки, Дружба 1а",,1039614_ESL-SES,Нет активной поддержки,"Московский филиал ООО ""2 МОБАЙЛ""",1 039 614," г. Химки, Дружба 1а",55.8940553,37.44394870000001,"Химки, Московская обл., Россия",Химки,Городской округ Химки,Московская область,,
262,133110,Теле-2,Москва_Белорусская_ул_Тверская_Застава_3_Афимолл_2_TOS,,133110_,Нет активной поддержки,"Московский филиал ООО ""2 МОБАЙЛ""",133 110, Москва_Белорусская_ул_Тверская_Застава_3_Афимолл_2_TOS,55.775553,37.5821847,"пл. Тверская Застава, 3-160, Москва, Россия, 123056",Москва,Москва,Москва,площадь Тверская Застава,3-160
263,133066,Теле-2,"Москва_Полежаевская_Хорошевское шоссе, д.27_ТРЦ Хорошо_Релокация_TOS",,133066_,Нет активной поддержки,"Московский филиал ООО ""2 МОБАЙЛ""",133 066," Москва_Полежаевская_Хорошевское шоссе, д.27_ТРЦ Хорошо_Релокация_TOS",55.777285,37.523278,"Хорошёвское ш., 27, Москва, Россия, 123007",Москва,Москва,Москва,Хорошёвское шоссе,27
264,133013,Теле-2,МО_Одинцовский_го_село_Юдино_55Е_ТЦ_ОдиПарк_TOS,,133013_,Нет активной поддержки,"Московский филиал ООО ""2 МОБАЙЛ""",133 013, МО_Одинцовский_го_село_Юдино_55Е_ТЦ_ОдиПарк_TOS,55.6538668,37.1781823,"55Е, Юдино, Московская обл., Россия, 143081",Юдино,Одинцовский городской округ,Московская область,,
265,126926,Теле-2,Москва_ул_Академика_Алиханова_д4_ТЦ_Грис_Молл_126926_TOS,,126926_,Нет активной поддержки,"Московский филиал ООО ""2 МОБАЙЛ""",126 926, Москва_ул_Академика_Алиханова_д4_ТЦ_Грис_Молл_126926_TOS,55.9287819,37.5452965,"ул. Академика Алиханова, 4, Москва, Россия, 127495",Москва,Москва,Москва,улица Академика Алиханова,4
266,123442,Теле-2,Москва_Кузьминки_ул_Зеленодольская_вл_42_ТЦ_Кузьминки_Молл_TOS,,123442_,Нет активной поддержки,"Московский филиал ООО ""2 МОБАЙЛ""",123 442, Москва_Кузьминки_ул_Зеленодольская_вл_42_ТЦ_Кузьминки_Молл_TOS,55.7013565,37.7639349,"ТРЦ Кузьминки Молл, ул. Зеленодольская, 42, Москва, Россия, 109462",Москва,Москва,Москва,улица Зеленодольская,42
267,142488,Теле-2,Москва_Кузьминки_пр-т_Волгоградский_82/37_Cofix_TRS,,142488_,Нет активной поддержки,"Московский филиал ООО ""2 МОБАЙЛ""",142 488, Москва_Кузьминки_пр-т_Волгоградский_82/37_Cofix_TRS,55.704621,37.7671,"Волгоградский пр-т., 82/37, Москва, Россия, 109443",Москва,Москва,Москва,Волгоградский проспект,82/37
268,1043903,Теле-2,Москва_Рассказовка_дер_Рассказовка_ул_Корнея_Чуковского_д_2_ТЦ_Сказка_TOS,,1043903_,Нет активной поддержки,"Московский филиал ООО ""2 МОБАЙЛ""",1 043 903, Москва_Рассказовка_дер_Рассказовка_ул_Корнея_Чуковского_д_2_ТЦ_Сказка_TOS,55.6343457,37.3343469,"ул. Корнея Чуковского, 2, Рассказовка, Москва, Россия, 119634",Рассказовка,Москва,Москва,улица Корнея Чуковского,2
269,945258,Теле-2,Москва_Теплый стан_Новоясеневский проспект_д_1_ТРЦ Спектр_TOS,,945258_,Нет активной поддержки,"Московский филиал ООО ""2 МОБАЙЛ""",945 258, Москва_Теплый стан_Новоясеневский проспект_д_1_ТРЦ Спектр_TOS,55.6193961,37.5093756,"Новоясеневский пр., д.1, Москва, Россия, 117574",Москва,Москва,Москва,Новоясеневский проспект,д.1
270,1083912,Теле-2,"г. Кемерово, пр-т Молодежный, д. 2а",,1083912_ESL-SES,Нет активной поддержки,"Кемеровский филиал ООО ""Т2 Мобайл""",1 083 912," г. Кемерово, пр-т Молодежный, д. 2а",55.3285324,86.1233912,"просп. Молодежный, 2А, Кемерово, Кемеровская обл., Россия, 650070",Кемерово,город Кемерово,Кемеровская область,проспект Молодежный,2А
271,130090,Теле-2,"г. Кемерово, пр-т Шахтеров, д. 54",,130090_ESL-ZKong,Нет активной поддержки,"Кемеровский филиал ООО ""Т2 Мобайл""",130 090," г. Кемерово, пр-т Шахтеров, д. 54",55.4009548,86.1184191,"просп. Шахтёров, 54, Кемерово, Кемеровская обл., Россия, 650002",Кемерово,город Кемерово,Кемеровская область,проспект Шахтёров,54
272,115036,Теле-2,"г. Новокузнецк, ул. Кирова, д. 55, ТРЦ СитиМолл",,115036_ESL-ZKong,Нет активной поддержки,"Кемеровский филиал ООО ""Т2 Мобайл""",115 036," г. Новокузнецк, ул. Кирова, д. 55, ТРЦ СитиМолл",53.7586477,87.1376573,"ул. Кирова, 55, Новокузнецк, Кемеровская обл., Россия, 654080",Новокузнецк,город Новокузнецк,Кемеровская область,улица Кирова,55
273,127878,Теле-2,"г. Новокузнецк, ул. ДОЗ, д. 10А",,127878_ESL-ZKong,Нет активной поддержки,"Кемеровский филиал ООО ""Т2 Мобайл""",127 878," г. Новокузнецк, ул. ДОЗ, д. 10А",53.7803181,87.1258294,"ул. Доз, 10А, Новокузнецк, Кемеровская обл., Россия, 654005",Новокузнецк,город Новокузнецк,Кемеровская область,улица Доз,10А
274,137711,Теле-2,"г. Новокузнецк, пр-т Запсибовцев, д. 16, ТЦ Бриз",,137711_,Архивный,"Кемеровский филиал ООО ""Т2 Мобайл""",137 711," г. Новокузнецк, пр-т Запсибовцев, д. 16, ТЦ Бриз",53.8986892,87.1283831,"просп. Запсибовцев, 16 б, Новокузнецк, Кемеровская обл., Россия, 654054",Новокузнецк,город Новокузнецк,Кемеровская область,проспект Запсибовцев,16 б
275,746760,Теле-2,"г. Ачинск, 6-й Микрорайон, д. 8",,746760_ESL-SES,Нет активной поддержки,"Красноярский филиал ООО ""Т2 Мобайл""",746 760," г. Ачинск, 6-й Микрорайон, д. 8",56.2360841,90.4903153,"Ачинск, Красноярский край, Россия",Ачинск,город Ачинск,Красноярский край,,
276,746767,Теле-2,"г. Красноярск, пр-т им. газеты Красноярский рабочий, д. 27",,746767_ESL-SES,Нет активной поддержки,"Красноярский филиал ООО ""Т2 Мобайл""",746 767," г. Красноярск, пр-т им. газеты Красноярский рабочий, д. 27",56.0237005,93.02188369999999,"строение 4, просп. имени газеты Красноярский Рабочий, 27, Красноярск, Красноярский край, Россия, 660004",Красноярск,город Красноярск,Красноярский край,проспект имени газеты Красноярский Рабочий,27
277,745523,Теле-2,"г. Красноярск, пр-т им. газеты Красноярский рабочий, д. 120",,745523_ESL-SES,Нет активной поддержки,"Красноярский филиал ООО ""Т2 Мобайл""",745 523," г. Красноярск, пр-т им. газеты Красноярский рабочий, д. 120",56.00414,92.93089470000001,"просп. имени газеты Красноярский Рабочий, 120, Красноярск, Красноярский край, Россия, 660095",Красноярск,город Красноярск,Красноярский край,проспект имени газеты Красноярский Рабочий,120
278,880610,Теле-2,"г. Красноярск, ул. Мартынова, д. 12",,880610_ESL-ZKong,Нет активной поддержки,"Красноярский филиал ООО ""Т2 Мобайл""",880 610," г. Красноярск, ул. Мартынова, д. 12",56.0387302,92.8812166,"ул. Дмитрия Мартынова, 12, Красноярск, Красноярский край, Россия, 660043",Красноярск,город Красноярск,Красноярский край,улица Дмитрия Мартынова,12
279,748457,Теле-2,"г. Красноярск, ул. 9 мая, д. 77, ТРЦ Планета",,748457_ESL-SES,Нет активной поддержки,"Красноярский филиал ООО ""Т2 Мобайл""",748 457," г. Красноярск, ул. 9 мая, д. 77, ТРЦ Планета",56.04991589999999,92.90338899999999,"ул. 9 Мая, 77, Красноярск, Красноярский край, Россия, 660125",Красноярск,город Красноярск,Красноярский край,улица 9 Мая,77
280,113676,Теле-2,"г. Красноярск, ул. Телевизорная, д. 1, стр. 90",,113676_ESL-ZKong,Нет активной поддержки,"Красноярский филиал ООО ""Т2 Мобайл""",113 676," г. Красноярск, ул. Телевизорная, д. 1, стр. 90",56.0224875,92.7985248,"Телевизорная ул., 1, строение 90, Красноярск, Красноярский край, Россия, 660028",Красноярск,город Красноярск,Красноярский край,Телевизорная улица,"1, строение 90"
281,15562,Теле-2,"г. Бердск, ул. Ленина, д. 52",,15562_ESL-SES,Нет активной поддержки,"Новосибирский  филиал ООО ""Т2 Мобайл""",15 562," г. Бердск, ул. Ленина, д. 52",54.7602089,83.1039009,"ул. Ленина, 52, Бердск, Новосибирская обл., Россия, 633010",Бердск,город Бердск,Новосибирская область,улица Ленина,52
282,1001875,Теле-2,"г. Новосибирск, ул. Военная, д. 5, ТЦ Аура",,1001875_ESL-SES,Архивный,"Новосибирский  филиал ООО ""Т2 Мобайл""",1 001 875," г. Новосибирск, ул. Военная, д. 5, ТЦ Аура",55.0292088,82.93671400000001,"Военная ул., 5, Новосибирск, Новосибирская обл., Россия, 630099",Новосибирск,город Новосибирск,Новосибирская область,Военная улица,5
283,763990,Теле-2,"г. Новосибирск, ул. Курчатова, д. 1",,763990_ESL-SES,Нет активной поддержки,"Новосибирский  филиал ООО ""Т2 Мобайл""",763 990," г. Новосибирск, ул. Курчатова, д. 1",55.1041262,82.9608367,"ул. Курчатова, 1, Новосибирск, Новосибирская обл., Россия, 630129",Новосибирск,город Новосибирск,Новосибирская область,улица Курчатова,1
284,20456,Теле-2,"г. Новосибирск, ул. Дзержинского, д. 61",,20456_ESL-SES,Нет активной поддержки,"Новосибирский  филиал ООО ""Т2 Мобайл""",20 456," г. Новосибирск, ул. Дзержинского, д. 61",55.0570566,82.9767632,"пр. Дзержинского, 61, Новосибирск, Новосибирская обл., Россия, 630015",Новосибирск,город Новосибирск,Новосибирская область,проспект Дзержинского,61
285,68983,Теле-2,"г. Новосибирск, Красный пр-т, д. 188",,68983_ESL-SES,Нет активной поддержки,"Новосибирский  филиал ООО ""Т2 Мобайл""",68 983," г. Новосибирск, Красный пр-т, д. 188",55.0596976,82.9140932,"пр-кт, 188, Новосибирск, Новосибирская обл., Россия, 630049",Новосибирск,город Новосибирск,Новосибирская область,пр-кт,188
286,730687,Теле-2,"г. Омск, б-р Архитекторов, д.35 СТЦ «Мега»",,730687_ESL-SES,Архивный,"Омский  филиал ООО ""Т2 Мобайл""",730 687," г. Омск, б-р Архитекторов, д.35 СТЦ «Мега»",54.9712664,73.28429969999999,"ТЦ ""Мега"", ул. бул. Архитекторов, 35, Омск, Омская обл., Россия, 644074",Омск,город Омск,Омская область,улица Бульвар Архитекторов,35
287,961411,Теле-2,"г. Томск, ул. Беринга, д. 10",,961411_ESL-ZKong,Нет активной поддержки,Томский филиал Т2 МОБАЙЛ ООО,961 411," г. Томск, ул. Беринга, д. 10",56.515753,85.0344743,"ул. Беринга, 10, Томск, Томская обл., Россия, 634063",Томск,город Томск,Томская область,улица Беринга,10
288,1062841,Теле-2,"г. Томск, Комсомольский пр-т, д. 13б (Изумрудный город)",,1062841_ESL-SES,На поддержке,Томский филиал Т2 МОБАЙЛ ООО,1 062 841," г. Томск, Комсомольский пр-т, д. 13б (Изумрудный город)",56.4886126,84.97914469999999,"Комсомольский просп., 13Б, Томск, Томская обл., Россия, 634003",Томск,город Томск,Томская область,Комсомольский проспект,13Б
289,115034,Теле-2,"г. Абакан, Некрасова, д. 31а",,115034_ESL-SES,Нет активной поддержки,Хакасия и Тыва филиал ООО “Т2 Мобайл”,115 034," г. Абакан, Некрасова, д. 31а",53.7245994,91.4219574,"ул. Некрасова, 31А, Абакан, Респ. Хакасия, Россия, 655004",Абакан,город Абакан,Республика Хакасия,улица Некрасова,31А
290,879334,Теле-2,"г. Абакан, Пушкина, д. 48",,879334_ESL-SES,На поддержке,Хакасия и Тыва филиал ООО “Т2 Мобайл”,879 334," г. Абакан, Пушкина, д. 48",53.71877569999999,91.4570196,"ул. Пушкина, 48, Абакан, Респ. Хакасия, Россия, 655000",Абакан,город Абакан,Республика Хакасия,улица Пушкина,48
291,1095903,Теле-2,"г. Кызыл, ул. Кочетова, д. 47",,1095903_ESL-SES,На поддержке,Хакасия и Тыва филиал ООО “Т2 Мобайл”,1 095 903," г. Кызыл, ул. Кочетова, д. 47",51.7192805,94.4409017,"ул. Кочетова, 47, Кызыл, Респу́блика Тыва́, Россия, 667961",Кызыл,город Кызыл,Респу́блика Тыва́,улица Кочетова,47
292,1018332,Теле-2,"Белгородская обл., г. Алексеевка, ул. Мостовая, д. 71",,1018332_ESL-SES,Архивный,"Белгородский филиал ООО ""Т2 Мобайл""",1 018 332," Белгородская обл., г. Алексеевка, ул. Мостовая, д. 71",50.6294692,38.6897593,"ул. Мостовая, 71, Алексеевка, Белгородская обл., Россия, 309850",Алексеевка,город Алексеевка,Белгородская область,улица Мостовая,71
293,754507,Теле-2,"г. Белгород, ул. Попова, д. 25",,754507_ESL-SES,Нет активной поддержки,"Белгородский филиал ООО ""Т2 Мобайл""",754 507," г. Белгород, ул. Попова, д. 25",50.6016245,36.5899504,"ул. Попова, 25, Белгород, Белгородская обл., Россия, 308034",Белгород,город Белгород,Белгородская область,улица Попова,25
294,47341,Теле-2,"г. Белгород, Гражданский пр-т, д. 10",,47341_ESL-SES,Нет активной поддержки,"Белгородский филиал ООО ""Т2 Мобайл""",47 341," г. Белгород, Гражданский пр-т, д. 10",50.5936282,36.6014474,"Деловой центр ""Концепт"", Гражданский пр., 10, Белгород, Белгородская обл., Россия, 308009",Белгород,город Белгород,Белгородская область,Гражданский проспект,10
295,1018302,Теле-2,"г. Белгород, ул. Щорса, д. 64.",,1018302_ESL-SES,На поддержке,"Белгородский филиал ООО ""Т2 Мобайл""",1 018 302," г. Белгород, ул. Щорса, д. 64.",50.5523075,36.56747680000001,"ул. Щорса, 64, Дубовое, Белгородская обл., Россия, 308036",Дубовое,Белгородский район,Белгородская область,улица Щорса,64
296,968265,Теле-2,"г. Белгород, ул. Макаренко, д.12",,968265_ESL-SES,На поддержке,"Белгородский филиал ООО ""Т2 Мобайл""",968 265," г. Белгород, ул. Макаренко, д.12",50.5775359,36.6682017,"Макаренко ул., 12, Белгород, Белгородская обл., Россия, 308029",Белгород,город Белгород,Белгородская область,Макаренко улица,12
297,964040,Теле-2,"г. Курск, ул. Карла Маркса, д. 6",,964040_ESL-ZKong,Нет активной поддержки,"Курский филиал ООО ""Т2 МОБАЙЛ""",964 040," г. Курск, ул. Карла Маркса, д. 6",51.74920909999999,36.1928762,"ул. Карла Маркса, 6, Курск, Курская обл., Россия, 305004",Курск,город Курск,Курская область,улица Карла Маркса,6
298,1071538,Теле-2,"г. Липецк, ул. Титова, д. 10",,1071538_ESL-SES,Нет активной поддержки,"Липецкий филиал ООО ""Т2 Мобайл""",1 071 538," г. Липецк, ул. Титова, д. 10",52.6170463,39.5566721,"ул. Титова, 10, Липецк, Липецкая обл., Россия, 398043",Липецк,город Липецк,Липецкая область,улица Титова,10
299,737945,Теле-2,"г. Липецк, пл. Победы, д. 1  ",,737945_ESL-SES,Нет активной поддержки,"Липецкий филиал ООО ""Т2 Мобайл""",737 945," г. Липецк, пл. Победы, д. 1  ",52.6033068,39.57489270000001,"пл. Победы, 1, Липецк, Липецкая обл., Россия, 398001",Липецк,город Липецк,Липецкая область,Площадь Победы,1
300,127466,Теле-2,"г. Липецк, ул. Советская, д. 66 ",,127466_ESL-SES,Нет активной поддержки,"Липецкий филиал ООО ""Т2 Мобайл""",127 466," г. Липецк, ул. Советская, д. 66 ",52.6039608,39.5772449,"ул. Советская, 66, Липецк, Липецкая обл., Россия, 398001",Липецк,город Липецк,Липецкая область,улица Советская,66
301,742532,Теле-2,"г. Саранск, ул. Пролетарская, д. 79",,742532_ESL-SES,Нет активной поддержки,Саранский филиал ООО “Т2 Мобайл”,742 532," г. Саранск, ул. Пролетарская, д. 79",54.1900968,45.1778745,"Пролетарская ул., 79, Саранск, Респ. Мордовия, Россия, 430016",Саранск,город Саранск,Республика Мордовия,Пролетарская улица,79
302,826700,Теле-2,"г. Саранск, ул. Волгоградская, д. 71",,826700_ESL-SES,Нет активной поддержки,Саранский филиал ООО “Т2 Мобайл”,826 700," г. Саранск, ул. Волгоградская, д. 71",54.1857014,45.21726410000001,"Волгоградская ул., 71, Саранск, Респ. Мордовия, Россия, 430009",Саранск,город Саранск,Республика Мордовия,Волгоградская улица,71
303,781841,Теле-2,"г. Ливны, пл. Автовокзальная, д.2",,781841_ESL-SES,Нет активной поддержки,"Орловский филиал ООО ""Т2 Мобайл""",781 841," г. Ливны, пл. Автовокзальная, д.2",52.4282402,37.60278479999999,"Ливны, Орловская обл., Россия",Ливны,город Ливны,Орловская область,,
304,1056465,Теле-2,"г. Орел, ул. Комсомольская, д. 229А",,1056465_ESL-SES,На поддержке,"Орловский филиал ООО ""Т2 Мобайл""",1 056 465," г. Орел, ул. Комсомольская, д. 229А",52.9410433,36.050389,"ул. Комсомольская, 229А, Орёл, Орловская обл., Россия, 302016",Орёл,город Орел,Орловская область,улица Комсомольская,229А
305,108276,Теле-2,"г. Пенза, ул. Кирова, д. 73",,108276_ESL-SES,Нет активной поддержки,"Пензенский филиал ООО ""Т2 Мобайл""",108 276," г. Пенза, ул. Кирова, д. 73",53.198275,45.0211543,"ул. Кирова, 73, Пенза, Пензенская обл., Россия, 440600",Пенза,город Пенза,Пензенская область,улица Кирова,73
306,845343,Теле-2,"г. Пенза, ул. Суворова, д. 144А",,845343_ESL-SES,Нет активной поддержки,"Пензенский филиал ООО ""Т2 Мобайл""",845 343," г. Пенза, ул. Суворова, д. 144А",53.2025276,44.9977847,"ул. Суворова, 144-А, Пенза, Пензенская обл., Россия, 440008",Пенза,город Пенза,Пензенская область,улица Суворова,144-А
307,113616,Теле-2,"г. Пенза , пр-т Строителей, д. 1В",,113616_ESL-SES,Нет активной поддержки,"Пензенский филиал ООО ""Т2 Мобайл""",113 616," г. Пенза , пр-т Строителей, д. 1В",53.2204748,44.9516836,"пр. Строителей, 1В, Пенза, Пензенская обл., Россия, 440066",Пенза,город Пенза,Пензенская область,проспект Строителей,1В
308,740626,Теле-2,"г. Пенза, с.Засечное, ул. Новотерновская, д. 1, ТЦ Слава",,740626_ESL-SES,Нет активной поддержки,"Пензенский филиал ООО ""Т2 Мобайл""",740 626," г. Пенза, с.Засечное, ул. Новотерновская, д. 1, ТЦ Слава",53.1322451,45.0226704,"Ново-Терновская ул., 1, Засечное, Пензенская обл., Россия, 440068",Засечное,Пензенский район,Пензенская область,Ново-Терновская улица,1
309,736578,Теле-2,"г. Саратов,  ул. Тархова, д. 29а, «Рынок Солнечный»",,736578_ESL-SES,Нет активной поддержки,"Саратовский филиал ООО ""Т2 Мобайл""",736 578," г. Саратов,  ул. Тархова, д. 29а, «Рынок Солнечный»",51.60974539999999,46.0015405,"ул. Тархова, 29A/1, Саратов, Саратовская обл., Россия, 410035",Саратов,город Саратов,Саратовская область,улица Тархова,29A/1
310,1082903,Теле-2,"г. Саратов, пр-т Кирова, д. 23",,1082903_ESL-SES,Нет активной поддержки,"Саратовский филиал ООО ""Т2 Мобайл""",1 082 903," г. Саратов, пр-т Кирова, д. 23",51.5335544,46.0177273,"пл. Кирова, 23, Саратов, Саратовская обл., Россия, 410012",Саратов,город Саратов,Саратовская область,площадь Кирова,23
311,768754,Теле-2,"г. Энгельс, ул. Ленина, д. 4",,768754_ESL-SES,Нет активной поддержки,"Саратовский филиал ООО ""Т2 Мобайл""",768 754," г. Энгельс, ул. Ленина, д. 4",51.5029586,46.1172224,"ул. Ленина, 4, Энгельс, Саратовская обл., Россия, 413100",Энгельс,город Энгельс,Саратовская область,улица Ленина,4
312,90002,Теле-2,"г. Борисоглебск, ул. Советская, д. 37",,90002_ESL-SES,Нет активной поддержки,Воронежский филиал Т2 МОБАЙЛ ООО,90 002," г. Борисоглебск, ул. Советская, д. 37",51.3686502,42.0774757,"ул. Советская, 37, Борисоглебск, Воронежская обл., Россия, 397160",Борисоглебск,Борисоглебский городской округ,Воронежская область,улица Советская,37
313,1017611,Теле-2,"г. Воронеж, Ленинский пр-т, д. 174п",,1017611_ESL-SES,Нет активной поддержки,Воронежский филиал Т2 МОБАЙЛ ООО,1 017 611," г. Воронеж, Ленинский пр-т, д. 174п",51.6976931,39.2746926,"Ленинский пр-т., 174П, Воронеж, Воронежская обл., Россия, 394063",Воронеж,город Воронеж,Воронежская область,Ленинский проспект,174П
314,1106428,Теле-2,"г. Воронеж, б-р Победы, д. 23Б, ТЦ Арена ",,1106428_ESL-SES,Нет активной поддержки,Воронежский филиал Т2 МОБАЙЛ ООО,1 106 428," г. Воронеж, б-р Победы, д. 23Б, ТЦ Арена ",51.710854,39.159657,"б-р Победы, 23Б, Воронеж, Воронежская обл., Россия, 394077",Воронеж,город Воронеж,Воронежская область,бульвар Победы,23Б
315,909018,Теле-2,"г. Воронеж, ул. Героев Сибиряков, д. 65А, ТЦ Армада",,909018_ESL-SES,Нет активной поддержки,Воронежский филиал Т2 МОБАЙЛ ООО,909 018," г. Воронеж, ул. Героев Сибиряков, д. 65А, ТЦ Армада",51.64604000000001,39.138694,"ул. Героев Сибиряков, 65А, Воронеж, Воронежская обл., Россия, 394051",Воронеж,город Воронеж,Воронежская область,улица Героев Сибиряков,65А
316,918765,Теле-2,"г. Воронеж, Московский пр-т, д. 129/1, ТЦ МП",,918765_ESL-ZKong,Нет активной поддержки,Воронежский филиал Т2 МОБАЙЛ ООО,918 765," г. Воронеж, Московский пр-т, д. 129/1, ТЦ МП",51.7179168,39.177179,"Московский просп., 129/1, Воронеж, Воронежская обл., Россия, 394005",Воронеж,город Воронеж,Воронежская область,Московский проспект,129/1
317,1050098,Теле-2,"г. Воронеж, ул. Парковая, д. 3",,1050098_ESL-SES,На поддержке,Воронежский филиал Т2 МОБАЙЛ ООО,1 050 098," г. Воронеж, ул. Парковая, д. 3",51.7408635,39.3685142,"Парковая ул., 3, Воронеж, Воронежская обл., Россия, 394011",Воронеж,город Воронеж,Воронежская область,Парковая улица,3
318,1060740,Теле-2,"г. Воронеж, ул. 20-летия октября, д. 90 ",,1060740_ESL-SES,На поддержке,Воронежский филиал Т2 МОБАЙЛ ООО,1 060 740," г. Воронеж, ул. 20-летия октября, д. 90 ",51.6557531,39.188707,"ул. 20-летия Октября, 90, Воронеж, Воронежская обл., Россия, 394006",Воронеж,город Воронеж,Воронежская область,улица 20-летия Октября,90
319,836876,Теле-2,"г. Брянск, ул. Красноармейская, д. 100 ",,836876_ESL-SES,Нет активной поддержки,Брянский филиал Т2 МОБАЙЛ ООО,836 876," г. Брянск, ул. Красноармейская, д. 100 ",53.2407593,34.3461711,"ул. Красноармейская, 100, Брянск, Брянская обл., Россия, 241019",Брянск,город Брянск,Брянская область,улица Красноармейская,100
320,98609,Теле-2,"г. Брянск, ул. Объездная, д. 30",,98609_ESL-SES,На поддержке,Брянский филиал Т2 МОБАЙЛ ООО,98 609," г. Брянск, ул. Объездная, д. 30",53.2756079,34.3161485,"Объездная ул., 30, Брянск, Брянская обл., Россия, 241023",Брянск,город Брянск,Брянская область,Объездная улица,30
321,1009023,Теле-2,"г. Брянск, ул. 3 Интернационала, д. 8",,1009023_ESL-SES,Нет активной поддержки,Брянский филиал Т2 МОБАЙЛ ООО,1 009 023," г. Брянск, ул. 3 Интернационала, д. 8",53.30799529999999,34.30190390000001,"ул. 3 Интернационала, 8, Брянск, Брянская обл., Россия, 241035",Брянск,город Брянск,Брянская область,улица 3 Интернационала,8
322,58517,Теле-2,"г. Тамбов, Коммунальная ул./Носовская ул., д. 21/7",,58517_ESL-ZKong,Нет активной поддержки,Тамбовский филиал Т2 МОБАЙЛ ООО,58 517," г. Тамбов, Коммунальная ул./Носовская ул., д. 21/7",52.725202,41.4469901,"Носовская ул., 21, Тамбов, Тамбовская обл., Россия, 392000",Тамбов,город Тамбов,Тамбовская область,Носовская улица,21
323,903417,Теле-2,"г. Тамбов, ул. Мичуринская, д. 211 ",,903417_ESL-SES,Нет активной поддержки,Тамбовский филиал Т2 МОБАЙЛ ООО,903 417," г. Тамбов, ул. Мичуринская, д. 211 ",52.76665149999999,41.39729,"ул. Мичуринская, 211, Тамбов, Тамбовская обл., Россия, 392027",Тамбов,город Тамбов,Тамбовская область,улица Мичуринская,211
324,139711,Теле-2,"г. Тамбов, ул. Чичерина , д. 3",,139711_ESL-ZKong,На поддержке,Тамбовский филиал Т2 МОБАЙЛ ООО,139 711," г. Тамбов, ул. Чичерина , д. 3",52.7685447,41.4043473,"ул. Чичерина, 3, Тамбов, Тамбовская обл., Россия, 392027",Тамбов,город Тамбов,Тамбовская область,улица Чичерина,3
325,113630,Теле-2,"г. Сыктывкар, Октябрьский пр-т, д. 141",,113630_ESL-ZKong,Нет активной поддержки,"Сыктывкарский филиал ООО ""Т2 Мобайл""",113 630," г. Сыктывкар, Октябрьский пр-т, д. 141",61.69848990000001,50.8015282,"Октябрьский пр., 141, Сыктывкар, Респ. Коми, Россия, 167000",Сыктывкар,город Сыктывкар,Республика Коми,Октябрьский проспект,141
326,933989,Теле-2,"г. Ухта, ул. Заводская, д. 3",,933989_ESL-ZKong,Нет активной поддержки,"Сыктывкарский филиал ООО ""Т2 Мобайл""",933 989," г. Ухта, ул. Заводская, д. 3",63.5662045,53.7093822,"ул. Заводская, 3, Ухта, Респ. Коми, Россия, 169300",Ухта,город Ухта,Республика Коми,улица Заводская,3
327,111383,Теле-2,"г. Сыктывкар, ул. Коммунистическая, д. 50",,111383_ESL-SES,Нет активной поддержки,"Сыктывкарский филиал ООО ""Т2 Мобайл""",111 383," г. Сыктывкар, ул. Коммунистическая, д. 50",61.6623895,50.805108,"ул. Коммунистическая, 50, Сыктывкар, Респ. Коми, Россия, 167000",Сыктывкар,город Сыктывкар,Республика Коми,улица Коммунистическая,50
328,797957,Теле-2,"г. Нефтеюганск, 2-й мкрн., д. 33",,797957_ESL-ZKong,Нет активной поддержки,Ханты-Мансийский филиал Т2 МОБАЙЛ ООО,797 957," г. Нефтеюганск, 2-й мкрн., д. 33",61.0732452,72.6126702,"микрорайон, 33, Нефтеюганск, Ханты-Мансийский автономный округ, Россия, 628306",Нефтеюганск,город Нефтеюганск,Ханты-Мансийский автономный округ,микрорайон,33
329,1071722,Теле-2,"г. Нижневартовск, ул. Ленина, д. 15П, ТЦ Югра Молл (у поддержки Кузоваткина 17)",,1071722_ESL-SES,Нет активной поддержки,Ханты-Мансийский филиал Т2 МОБАЙЛ ООО,1 071 722," г. Нижневартовск, ул. Ленина, д. 15П, ТЦ Югра Молл (у поддержки Кузоваткина 17)",60.9410994,76.54740579999999,"ул. Ленина, 15П, Нижневартовск, Ханты-Мансийский автономный округ, Россия, 628600",Нижневартовск,город Нижневартовск,Ханты-Мансийский автономный округ,улица Ленина,15П
330,112478,Теле-2,"г. Нижневартовск, ул. Ленина, д. 8",,112478_ESL-ZKong,Нет активной поддержки,Ханты-Мансийский филиал Т2 МОБАЙЛ ООО,112 478," г. Нижневартовск, ул. Ленина, д. 8",60.94047,76.55873,"ул. Ленина, 8, Нижневартовск, Ханты-Мансийский автономный округ, Россия, 628606",Нижневартовск,город Нижневартовск,Ханты-Мансийский автономный округ,улица Ленина,8
331,1134063,Теле-2,"г. Сургут, пр-т Ленина, д. 37",,1134063_ESL-SES,Нет активной поддержки,Ханты-Мансийский филиал Т2 МОБАЙЛ ООО,1 134 063," г. Сургут, пр-т Ленина, д. 37",61.25493739999999,73.3918976,"пр. Ленина, 37, Сургут, Ханты-Мансийский автономный округ, Россия, 628416",Сургут,город Сургут,Ханты-Мансийский автономный округ,проспект Ленина,37
332,1096681,Теле-2,"г. Ханты-Мансийск, ул. Энгельса, д. 1",,1096681_ESL-SES,Нет активной поддержки,Ханты-Мансийский филиал Т2 МОБАЙЛ ООО,1 096 681," г. Ханты-Мансийск, ул. Энгельса, д. 1",61.0030758,69.0176164,"ул. Энгельса, 1, Ханты-Мансийск, Ханты-Мансийский автономный округ, Россия, 628011",Ханты-Мансийск,город Ханты-Мансийск,Ханты-Мансийский автономный округ,улица Энгельса,1
333,112477,Теле-2,"г. Екатеринбург, ул. Амундсена, д. 65",,112477_ESL-SES,Нет активной поддержки,Екатеринбургский филиал Т2 МОБАЙЛ ООО,112 477," г. Екатеринбург, ул. Амундсена, д. 65",56.7958136,60.58088859999999,"ул. Амундсена, 65, Екатеринбург, Свердловская обл., Россия, 620146",Екатеринбург,город Екатеринбург,Свердловская область,улица Амундсена,65
334,113384,Теле-2,"г. Екатеринбург, ул. Академика Шварца, д. 17",,113384_ESL-SES,Нет активной поддержки,Екатеринбургский филиал Т2 МОБАЙЛ ООО,113 384," г. Екатеринбург, ул. Академика Шварца, д. 17",56.7966649,60.62675239999999,"ул. Академика Шварца, 17, Екатеринбург, Свердловская обл., Россия, 620089",Екатеринбург,город Екатеринбург,Свердловская область,улица Академика Шварца,17
335,123443,Теле-2,"г. Екатеринбург, ул. 8 Марта, д. 46",,123443_ESL-ZKong,Нет активной поддержки,Екатеринбургский филиал Т2 МОБАЙЛ ООО,123 443," г. Екатеринбург, ул. 8 Марта, д. 46",56.8289869,60.59883679999999,"ул. 8 Марта, 46, Екатеринбург, Свердловская обл., Россия, 620014",Екатеринбург,город Екатеринбург,Свердловская область,улица 8 Марта,46
336,1092824,Теле-2,"г. Екатеринбург, ул. Краснолесья, д. 133, ТЦ Академический",,1092824_ESL-SES,Нет активной поддержки,Екатеринбургский филиал Т2 МОБАЙЛ ООО,1 092 824," г. Екатеринбург, ул. Краснолесья, д. 133, ТЦ Академический",56.79325600000001,60.5195308,"ул. Краснолесья, 133, Екатеринбург, Свердловская обл., Россия, 620016",Екатеринбург,город Екатеринбург,Свердловская область,улица Краснолесья,133
337,780178,Теле-2,"г. Екатеринбург, ул. Вайнера, д.9А",,780178_ESL-ZKong,На поддержке,Екатеринбургский филиал Т2 МОБАЙЛ ООО,780 178," г. Екатеринбург, ул. Вайнера, д.9А",56.8277684,60.59817870000001,"ул. Вайнера, 9а, Екатеринбург, Свердловская обл., Россия, 620144",Екатеринбург,город Екатеринбург,Свердловская область,улица Вайнера,9а
338,771319,Теле-2,"г. Каменск-Уральский, пр-т Победы, д. 11А",,771319_ESL-ZKong,Нет активной поддержки,Екатеринбургский филиал Т2 МОБАЙЛ ООО,771 319," г. Каменск-Уральский, пр-т Победы, д. 11А",56.4195685,61.918536,"пр. Победы, 11А, Каменск-Уральский, Свердловская обл., Россия, 623428",Каменск-Уральский,город Каменск-Уральский,Свердловская область,проспект Победы,11А
339,122016,Теле-2,"г. Каменск-Уральский, ул. Суворова, д. 24",,122016_ESL-ZKong,Нет активной поддержки,Екатеринбургский филиал Т2 МОБАЙЛ ООО,122 016," г. Каменск-Уральский, ул. Суворова, д. 24",56.3907,61.9294839,"ул. Суворова, 24, Каменск-Уральский, Свердловская обл., Россия, 623430",Каменск-Уральский,город Каменск-Уральский,Свердловская область,улица Суворова,24
340,118153,Теле-2,"г. Новоуральск, Первомайская 87",,118153_ESL-ZKong,Нет активной поддержки,Екатеринбургский филиал Т2 МОБАЙЛ ООО,118 153," г. Новоуральск, Первомайская 87",57.2459331,60.0847373,"Первомайская ул., 87, Новоуральск, Свердловская обл., Россия, 624132",Новоуральск,город Новоуральск,Свердловская область,Первомайская улица,87
341,852296,Теле-2,"г. Оренбург, пр-т Дзержинского, д. 23",,852296_ESL-SES,Нет активной поддержки,Оренбургский филиал ООО “Т2 Мобайл”,852 296," г. Оренбург, пр-т Дзержинского, д. 23",51.8335368,55.1312076,"просп. Дзержинского, 23, Оренбург, Оренбургская обл., Россия, 460044",Оренбург,город Оренбург,Оренбургская область,проспект Дзержинского,23
342,900929,Теле-2,"г. Оренбург, пр-т Гагарина, д. 48",,900929_ESL-SES,Нет активной поддержки,Оренбургский филиал ООО “Т2 Мобайл”,900 929," г. Оренбург, пр-т Гагарина, д. 48",51.7759037,55.1854634,"пр. Гагарина, 48, Оренбург, Оренбургская обл., Россия, 460051",Оренбург,город Оренбург,Оренбургская область,проспект Гагарина,48
343,876649,Теле-2,"г. Оренбург, пр-т Победы, д. 1А",,876649_ESL-SES,Нет активной поддержки,Оренбургский филиал ООО “Т2 Мобайл”,876 649," г. Оренбург, пр-т Победы, д. 1А",51.7705488,55.10360679999999,"пр. Победы, 1а, Оренбург, Оренбургская обл., Россия, 460000",Оренбург,город Оренбург,Оренбургская область,проспект Победы,1а
344,854536,Теле-2,"г. Оренбург, ул. Новая, д. 4",,854536_ESL-SES,На поддержке,Оренбургский филиал ООО “Т2 Мобайл”,854 536," г. Оренбург, ул. Новая, д. 4",51.81019320000001,55.0934157,"ул. Новая, 4, Оренбург, Оренбургская обл., Россия, 460022",Оренбург,город Оренбург,Оренбургская область,улица Новая,4
345,755198,Теле-2,"Пермский Край, г. Березники, ул. Мира, д. 82",,755198_ESL-ZKong,Нет активной поддержки,Пермский филиал Т2 МОБАЙЛ ООО,755 198," Пермский Край, г. Березники, ул. Мира, д. 82",59.4091958,56.8517617,"ул. Мира, 82, Березники, Пермский край, Россия, 618425",Березники,город Березники,Пермский край,улица Мира,82
346,1024729,Теле-2,"г. Краснокамск, Комсомольский пр-т, д. 20",,1024729_ESL-SES,Нет активной поддержки,Пермский филиал Т2 МОБАЙЛ ООО,1 024 729," г. Краснокамск, Комсомольский пр-т, д. 20",58.0789548,55.7671866,"Краснокамск, Пермский край, Россия",Краснокамск,город Краснокамск,Пермский край,,
347,1052156,Теле-2,"г. Пермь, Комсомольский пр-т, д. 58",,1052156_ESL-SES,Нет активной поддержки,Пермский филиал Т2 МОБАЙЛ ООО,1 052 156," г. Пермь, Комсомольский пр-т, д. 58",57.9997184,56.25041479999999,"Комсомольский пр., 58, Пермь, Пермский край, Россия, 614039",Пермь,город Пермь,Пермский край,Комсомольский проспект,58
348,1024733,Теле-2,"г. Пермь, ш. Космонавтов, д. 162",,1024733_ESL-SES,Нет активной поддержки,Пермский филиал Т2 МОБАЙЛ ООО,1 024 733," г. Пермь, ш. Космонавтов, д. 162",57.9721942,56.1510007,"ш. Космонавтов, 162, Пермь, Пермский край, Россия, 614065",Пермь,город Пермь,Пермский край,шоссе Космонавтов,162
349,755183,Теле-2,"г. Пермь, Парковый пр-т, д. 17",,755183_ESL-SES,Нет активной поддержки,Пермский филиал Т2 МОБАЙЛ ООО,755 183," г. Пермь, Парковый пр-т, д. 17",57.9992971,56.1680429,"Парковый пр-т., 17, Пермь, Пермский край, Россия, 614046",Пермь,город Пермь,Пермский край,Парковый проспект,17
350,755182,Теле-2,"г. Пермь, ул. Мира, д. 41",,755182_ESL-SES,На поддержке,Пермский филиал Т2 МОБАЙЛ ООО,755 182," г. Пермь, ул. Мира, д. 41",57.9764277,56.1868815,"ул. Мира, 41, Пермь, Пермский край, Россия, 614095",Пермь,город Пермь,Пермский край,улица Мира,41
351,1011535,Теле-2,"г. Соликамск, ул. 20 лет победы, д. 117",,1011535_ESL-SES,Нет активной поддержки,Пермский филиал Т2 МОБАЙЛ ООО,1 011 535," г. Соликамск, ул. 20 лет победы, д. 117",59.64868079999999,56.7730428,"ул. 20 Лет Победы, 117, Соликамск, Пермский край, Россия, 618551",Соликамск,город Соликамск,Пермский край,улица 20 Лет Победы,117
352,914884,Теле-2,"г. Тобольск, 7 мкрн, д. 30 ,ТРЦ Жемчужина Сибири",,914884_ESL-SES,Нет активной поддержки,"Филиал ООО ""Т2 Мобайл"" в Тюменской и Курганской областях",914 884," г. Тобольск, 7 мкрн, д. 30 ,ТРЦ Жемчужина Сибири",58.2287287,68.2752094,"7 микрорайон, 30, Тобольск, Тюменская обл., Россия, 626158",Тобольск,город Тобольск,Тюменская область,7 микрорайон,30
353,1067191,Теле-2,"г. Тюмень, ул. Широтная, д. 112б, ТРЦ «Матрешка»",,1067191_ESL-SES,Нет активной поддержки,"Филиал ООО ""Т2 Мобайл"" в Тюменской и Курганской областях",1 067 191," г. Тюмень, ул. Широтная, д. 112б, ТРЦ «Матрешка»",57.1071532,65.5892372,"ул. Широтная, 112 а, Тюмень, Тюменская обл., Россия, 625046",Тюмень,город Тюмень,Тюменская область,улица Широтная,112 а
354,1083371,Теле-2,"г. Тюмень, Московский тракт, д. 118, ТРЦ «Колумб»",,1083371_ESL-SES,Нет активной поддержки,"Филиал ООО ""Т2 Мобайл"" в Тюменской и Курганской областях",1 083 371," г. Тюмень, Московский тракт, д. 118, ТРЦ «Колумб»",57.134819,65.4942856,"ул. Московский тракт, 118, Тюмень, Тюменская обл., Россия, 625000",Тюмень,город Тюмень,Тюменская область,улица Московский тракт,118
355,759099,Теле-2,"г. Тюмень, ул. Дмитрия Менделеева, д. 1",,759099_ESL-ZKong,Нет активной поддержки,"Филиал ООО ""Т2 Мобайл"" в Тюменской и Курганской областях",759 099," г. Тюмень, ул. Дмитрия Менделеева, д. 1",57.116878,65.55046,"ТРК ""Кристалл"", ул. Дмитрия Менделеева, 1, Тюмень, Тюменская обл., Россия, 625007",Тюмень,город Тюмень,Тюменская область,улица Дмитрия Менделеева,1
356,1067192,Теле-2,"г. Тюмень, ул. Пермякова, д. 50Б",,1067192_ESL-SES,На поддержке,"Филиал ООО ""Т2 Мобайл"" в Тюменской и Курганской областях",1 067 192," г. Тюмень, ул. Пермякова, д. 50Б",57.1188782,65.5768208,"ул. Пермякова, 50Б, Тюмень, Тюменская обл., Россия, 625016",Тюмень,город Тюмень,Тюменская область,улица Пермякова,50Б
357,1086737,Теле-2,"г. Копейск, пр-т Славы, д. 8",,1086737_ESL-SES,Нет активной поддержки,"Челябинский филиал ООО ""Т2 МОБАЙЛ""",1 086 737," г. Копейск, пр-т Славы, д. 8",55.1131691,61.6113239,"пр. Славы, 8, Копейск, Челябинская обл., Россия, 456618",Копейск,город Копейск,Челябинская область,проспект Славы,8
358,64048,Теле-2,"г. Магнитогорск, пр-т Карла Маркса, д. 168 (бывший Завенягина 10)",,64048_ESL-SES,Нет активной поддержки,"Челябинский филиал ООО ""Т2 МОБАЙЛ""",64 048," г. Магнитогорск, пр-т Карла Маркса, д. 168 (бывший Завенягина 10)",53.38124699999999,58.9770487,"пр-т. К.Маркса, 168, Магнитогорск, Челябинская обл., Россия, 455038",Магнитогорск,город Магнитогорск,Челябинская область,проспект К.Маркса,168
359,18781,Теле-2,"г. Магнитогорск, пр-т Карла Маркса, д. 109",,18781_ESL-ZKong,Нет активной поддержки,"Челябинский филиал ООО ""Т2 МОБАЙЛ""",18 781," г. Магнитогорск, пр-т Карла Маркса, д. 109",53.397067,58.9794916,"пр-т. К.Маркса, 109, Магнитогорск, Челябинская обл., Россия, 455037",Магнитогорск,город Магнитогорск,Челябинская область,проспект К.Маркса,109
360,854532,Теле-2,"г. Миасс, пр-т Автозаводцев, д. 65",,854532_ESL-SES,Нет активной поддержки,"Челябинский филиал ООО ""Т2 МОБАЙЛ""",854 532," г. Миасс, пр-т Автозаводцев, д. 65",55.0465367,60.1097403,"пр. Автозаводцев, 65, Миасс, Челябинская обл., Россия, 456300",Миасс,город Миасс,Челябинская область,проспект Автозаводцев,65
361,18914,Теле-2,"г. Миасс, пр-т Автозаводцев, д. 23",,18914_ESL-SES,Нет активной поддержки,"Челябинский филиал ООО ""Т2 МОБАЙЛ""",18 914," г. Миасс, пр-т Автозаводцев, д. 23",55.05850299999999,60.10814399999999,"пр. Автозаводцев, 23, Миасс, Челябинская обл., Россия, 456304",Миасс,город Миасс,Челябинская область,проспект Автозаводцев,23
362,1001464,Теле-2,"г. Челябинск, ул. Черкасская, д. 15",,1001464_ESL-SES,Нет активной поддержки,"Челябинский филиал ООО ""Т2 МОБАЙЛ""",1 001 464," г. Челябинск, ул. Черкасская, д. 15",55.2413593,61.3803776,"ул. Черкасская, 15, Челябинск, Челябинская обл., Россия, 454031",Челябинск,город Челябинск,Челябинская область,улица Черкасская,15
363,759349,Теле-2,"г. Челябинск, ул. Дарвина, д. 18",,759349_ESL-SES,Нет активной поддержки,"Челябинский филиал ООО ""Т2 МОБАЙЛ""",759 349," г. Челябинск, ул. Дарвина, д. 18",55.12710569999999,61.3692418,"ул. Дарвина, 18, Челябинск, Челябинская обл., Россия, 454087",Челябинск,город Челябинск,Челябинская область,улица Дарвина,18
364,754332,Теле-2,"г. Челябинск, ул. Кирова, д. 1Б",,754332_ESL-ZKong,Нет активной поддержки,"Челябинский филиал ООО ""Т2 МОБАЙЛ""",754 332," г. Челябинск, ул. Кирова, д. 1Б",55.1830121,61.3998281,"ул. Кирова, 1 б, Челябинск, Челябинская обл., Россия, 454084",Челябинск,город Челябинск,Челябинская область,улица Кирова,1 б
365,65089,Теле-2,"г. Челябинск, Комсомольский пр-т, д. 34Б",,65089_ESL-SES,Нет активной поддержки,"Челябинский филиал ООО ""Т2 МОБАЙЛ""",65 089," г. Челябинск, Комсомольский пр-т, д. 34Б",55.194832,61.3432988,"Комсомольский пр-т., 34Б, Челябинск, Челябинская обл., Россия, 454000",Челябинск,город Челябинск,Челябинская область,Комсомольский проспект,34Б
366,7623,Теле-2,"г. Челябинск, ул. Сони Кривой, д. 32",,7623_ESL-SES,Нет активной поддержки,"Челябинский филиал ООО ""Т2 МОБАЙЛ""",7 623," г. Челябинск, ул. Сони Кривой, д. 32",55.1581347,61.39005219999999,"ул. Сони Кривой, 32, Челябинск, Челябинская обл., Россия, 454080",Челябинск,город Челябинск,Челябинская область,улица Сони Кривой,32
367,53440,Теле-2,"г. Златоуст,  ул. Гагарина, д. 10",,53440_ESL-ZKong,Нет активной поддержки,"Челябинский филиал ООО ""Т2 МОБАЙЛ""",53 440," г. Златоуст,  ул. Гагарина, д. 10",55.146998,59.676211,"просп. Гагарина, 10, Златоуст, Челябинская обл., Россия, 456228",Златоуст,город Златоуст,Челябинская область,проспект Гагарина,10
368,762013,Теле-2,"г. Новый Уренгой, ул. Сибирская, д. 36",,762013_ESL-ZKong,На поддержке,"Ямало-Ненецкий филиал ООО ""Т2 Мобайл""",762 013," г. Новый Уренгой, ул. Сибирская, д. 36",66.0814645,76.650634,"Сибирская ул., 36, Новый Уренгой, Ямало-Ненецкий автономный округ, Россия, 629305",Новый Уренгой,город Новый Уренгой,Ямало-Ненецкий автономный округ,Сибирская улица,36
369,128201,Теле-2,"г. Новый Уренгой, ул. Подшибякина, д. 1, ТЦ Гудзон",,128201_ESL-ZKong,На поддержке,"Ямало-Ненецкий филиал ООО ""Т2 Мобайл""",128 201," г. Новый Уренгой, ул. Подшибякина, д. 1, ТЦ Гудзон",66.114435,76.6722446,"ул. Подшибякина, 1/2а, Новый Уренгой, Ямало-Ненецкий автономный округ, Россия, 629307",Новый Уренгой,город Новый Уренгой,Ямало-Ненецкий автономный округ,улица Подшибякина,1/2а
